STATE,COUNTY,STATION_ID,DIR,URB_RURAL,F_SYSTEM,ROUTE_SIGN,ROUTE_NUMBER,LAT,LONG,LOCATION,STATE_NAME,COUNTY_NAME,REPCTY
25,3,000002,3,U,4,2,00000020,42.297652,-73.223668,Route 20 at CHAPEL STREET,MA,Berkshire County,17
25,3,000002,7,U,4,2,00000020,42.297652,-73.223668,Route 20 at CHAPEL STREET,MA,Berkshire County,17
25,3,000101,1,U,3,3,00000008,42.500907,-71.145063,RTE 8 NB&SB,MA,Berkshire County,17
25,3,000102,5,U,3,3,00000008,42.500907,-71.145063,RTE 8 NB&SB,MA,Berkshire County,17
25,3,000125,3,R,5,3,0000008A,42.544693,-72.982442,MAIN ROAD WEST OF PLAINFIELD T.L.,MA,Berkshire County,17
25,3,000125,7,R,5,3,0000008A,42.544693,-72.982442,MAIN ROAD WEST OF PLAINFIELD T.L.,MA,Berkshire County,17
25,3,000155,3,R,5,3,00000023,42.186782,-73.304032,ROUTE 23 WEST OF Monterey T.L.,MA,Berkshire County,17
25,3,000155,7,R,5,3,00000023,42.186782,-73.304032,ROUTE 23 WEST OF Monterey T.L.,MA,Berkshire County,17
25,3,000189,1,R,5,3,00000183,42.351573,-73.31485,Route 183 SOUTH OF Lenox T.L.,MA,Berkshire County,17
25,3,000189,5,R,5,3,00000183,42.351573,-73.31485,Route 183 SOUTH OF Lenox T.L.,MA,Berkshire County,17
25,3,000190,1,R,5,3,00000041,42.259755,-73.377564,ROUTE 41 at Great Barrington T.L.,MA,Berkshire County,17
25,3,000190,5,R,5,3,00000041,42.259755,-73.377564,ROUTE 41 at Great Barrington T.L.,MA,Berkshire County,17
25,3,001171,1,R,3,2,00000007,42.052544,-73.326535,SOUTH MAIN STREET AT CONNECTICUT STATE LINE,MA,Berkshire County,17
25,3,001171,5,R,3,2,00000007,42.052544,-73.326535,SOUTH MAIN STREET AT CONNECTICUT STATE LINE,MA,Berkshire County,17
25,3,001178,1,R,4,2,00000007,42.548225,-73.23355,RTE.7 NORTH OF BAILEY ROAD,MA,Berkshire County,17
25,3,001178,5,R,4,2,00000007,42.548225,-73.23355,RTE.7 NORTH OF BAILEY ROAD,MA,Berkshire County,17
25,3,001179,1,U,3,2,00000007,42.365665,-73.276243,Rtes 7&20 VETERANS MEMORIAL HIGHWAY S OF Route 7A,MA,Berkshire County,17
25,3,001179,5,U,3,2,00000007,42.365665,-73.276243,Rtes 7&20 VETERANS MEMORIAL HIGHWAY S OF Route 7A,MA,Berkshire County,17
25,3,001181,1,R,4,3,00000008,42.079337,-73.068474,SOUTH MAIN STREET SOUTH OF ROOSTERVILLE ROAD,MA,Berkshire County,17
25,3,001181,5,R,4,3,00000008,42.079337,-73.068474,SOUTH MAIN STREET SOUTH OF ROOSTERVILLE ROAD,MA,Berkshire County,17
25,3,001182,3,R,3,3,00000009,42.509812,-73.049942,BERKSHIRE TRAIL EAST OF SAVOY HOLLOW ROAD,MA,Berkshire County,17
25,3,001182,7,R,3,3,00000009,42.509812,-73.049942,BERKSHIRE TRAIL EAST OF SAVOY HOLLOW ROAD,MA,Berkshire County,17
25,3,001183,1,R,3,3,00000007,42.152751,-73.364301,ROUTE 7 SOUTH OF GREAT BARRINGTON T.L.,MA,Berkshire County,17
25,3,001183,5,R,3,3,00000007,42.152751,-73.364301,ROUTE 7 SOUTH OF GREAT BARRINGTON T.L.,MA,Berkshire County,17
25,3,001950,1,R,5,3,00000043,42.538988,-73.336334,HANCOCK ROAD 0.2 miles north of the New York S.L.,MA,Berkshire County,17
25,3,001950,5,R,5,3,00000043,42.538988,-73.336334,HANCOCK ROAD 0.2 miles north of the New York S.L.,MA,Berkshire County,17
25,3,010102,1,U,3,3,SR800000,42.500907,-71.145063,RTE 8 NB&SB,MA,Berkshire County,17
25,3,010102,5,U,3,3,SR800000,42.500907,-71.145063,RTE 8 NB&SB,MA,Berkshire County,17
25,3,010102,9,U,3,3,SR800000,42.500907,-71.145063,"RTE 8 NB&SB, 0.5 MI. SOUTH OF LANESBOROUGH T.L.",MA,Berkshire County,17
25,3,012503,3,U,4,3,0000008A,42.547158,-72.986014,MAIN ROAD,MA,Berkshire County,17
25,3,012504,7,U,4,3,0000008A,42.547158,-72.986014,MAIN ROAD,MA,Berkshire County,17
25,3,015534,7,R,4,3,0000SR23,42.186772,-73.304009,MONTEREY ROAD,MA,Berkshire County,17
25,3,016212,9,U,3,3,00000SR8,42.657093,-73.109571,CURRAN MEMORIAL HIGHWAY,MA,Berkshire County,17
25,3,018912,9,R,4,3,000SR183,42.352147,-73.313429,INTERLAKEN ROAD,MA,Berkshire County,17
25,3,019012,9,R,4,3,0000SR41,42.258633,-73.376796,GREAT BARRINGTON ROAD,MA,Berkshire County,17
25,3,020304,0,R,4,2,0000US20,42.297758,-73.223452,CHAPEL STREET,MA,Berkshire County,17
25,3,400102,9,R,3,2,0000US20,42.384365,-73.274959,LENOX PITTSFIELD STATE ROAD,MA,Berkshire County,17
25,5,000003,3,U,3,2,00000044,41.865889,-71.215441,RTE.44 EAST OF RTE.118,MA,Bristol County,5
25,5,000003,7,U,3,2,00000044,41.865889,-71.215441,RTE.44 EAST OF RTE.118,MA,Bristol County,5
25,5,000016,1,U,2,3,00000024,41.924202,-71.031524,AMVETS MEMORIAL HIGHWAY NORTH OF RTE.44,MA,Bristol County,5
25,5,000016,5,U,2,3,00000024,41.924202,-71.031524,AMVETS MEMORIAL HIGHWAY NORTH OF RTE.44,MA,Bristol County,5
25,5,000024,3,U,4,2,00000006,41.776137,-71.284135,ROUTE 6 WEST OF SWANSEA T.L.,MA,Bristol County,5
25,5,000024,7,U,4,2,00000006,41.776137,-71.284135,ROUTE 6 WEST OF SWANSEA T.L.,MA,Bristol County,5
25,5,000025,1,U,4,3,00000138,41.773803,-71.136856,RTE.138 SOUTH OF WHETSTONE HILL ROAD,MA,Bristol County,5
25,5,000025,5,U,4,3,00000138,41.773803,-71.136856,RTE.138 SOUTH OF WHETSTONE HILL ROAD,MA,Bristol County,5
25,5,000038,3,U,1,1,00000195,41.654641,-70.917336,INTERSTATE 195 EAST OF ACUSHNET RIVER,MA,Bristol County,5
25,5,000038,7,U,1,1,00000195,41.654641,-70.917336,INTERSTATE 195 EAST OF ACUSHNET RIVER,MA,Bristol County,5
25,5,000060,3,U,1,1,00000195,41.796149,-71.318296,INTERSTATE 195 AT ANTHONY ST.,MA,Bristol County,5
25,5,000060,7,U,1,1,00000195,41.796149,-71.318296,INTERSTATE 195 AT ANTHONY ST.,MA,Bristol County,5
25,5,000617,1,U,2,3,00000140,41.742741,-70.960012,ALFRED BESSETTE MEMORIAL HIGHWAY N OF NEW BEDFORD,MA,Bristol County,5
25,5,000617,5,U,2,3,00000140,41.742741,-70.960012,ALFRED BESSETTE MEMORIAL HIGHWAY N OF NEW BEDFORD,MA,Bristol County,5
25,5,000650,1,U,1,1,00000095,41.964127,-71.298535,INTERSTATE 95 NORTH OF RTE.I-295,MA,Bristol County,5
25,5,000650,5,U,1,1,00000095,41.964127,-71.298535,INTERSTATE 95 NORTH OF RTE.I-295,MA,Bristol County,5
25,5,000725,1,U,1,1,00000495,41.93851,-71.01401,INTERSTATE 495 SOUTH OF RTE.24.,MA,Bristol County,5
25,5,000725,5,U,1,1,00000495,41.93851,-71.01401,INTERSTATE 495 SOUTH OF RTE.24.,MA,Bristol County,5
25,5,001001,1,U,1,1,0000I495,42.026258,-71.256819,INTERSTATE 495,MA,Bristol County,5
25,5,001002,5,U,1,1,0000I495,42.026258,-71.256819,INTERSTATE 495,MA,Bristol County,5
25,5,001601,1,U,2,3,0000SR24,41.932763,-71.026507,AMVETS MEMORIAL HIGHWAY,MA,Bristol County,5
25,5,001602,5,U,2,3,0000SR24,41.932763,-71.026507,AMVETS MEMORIAL HIGHWAY,MA,Bristol County,5
25,5,006003,3,U,1,1,0000I195,41.799272,-71.324859,INTERSTATE 195,MA,Bristol County,5
25,5,006004,7,U,1,1,0000I195,41.799272,-71.324859,INTERSTATE 195,MA,Bristol County,5
25,5,006072,1,U,2,3,00000024,41.88824,-71.050831,AMVETS MEMORIAL HIGHWAY NORTH OF RTE.140,MA,Bristol County,5
25,5,006072,5,U,2,3,00000024,41.88824,-71.050831,AMVETS MEMORIAL HIGHWAY NORTH OF RTE.140,MA,Bristol County,5
25,5,006084,1,U,1,1,00000095,41.894702,-71.375628,INTERSTATE 95 AT RHODE ISLAND STATE LINE,MA,Bristol County,5
25,5,006084,5,U,1,1,00000095,41.894702,-71.375628,INTERSTATE 95 AT RHODE ISLAND STATE LINE,MA,Bristol County,5
25,5,006089,1,U,1,1,00000095,41.899874,-71.36431,INTERSTATE 95  BTWN. RTES.1 & 1A,MA,Bristol County,5
25,5,006089,5,U,1,1,00000095,41.899874,-71.36431,INTERSTATE 95  BTWN. RTES.1 & 1A,MA,Bristol County,5
25,5,006090,1,U,1,1,00000095,41.92717,-71.325544,INTERSTATE 95 SOUTH OF RTE.123,MA,Bristol County,5
25,5,006090,5,U,1,1,00000095,41.92717,-71.325544,INTERSTATE 95 SOUTH OF RTE.123,MA,Bristol County,5
25,5,006091,1,U,1,1,00000095,41.946448,-71.309844,INTERSTATE 95 NORTH OF RTE.123,MA,Bristol County,5
25,5,006091,5,U,1,1,00000095,41.946448,-71.309844,INTERSTATE 95 NORTH OF RTE.123,MA,Bristol County,5
25,5,006105,3,U,1,1,00000195,41.760134,-71.229187,INTERSTATE 195 NORTH OF RTE.6,MA,Bristol County,5
25,5,006105,7,U,1,1,00000195,41.760134,-71.229187,INTERSTATE 195 NORTH OF RTE.6,MA,Bristol County,5
25,5,006106,3,U,1,1,00000195,41.718294,-71.182815,INTERSTATE 195 AT BRAGA BRIDGE,MA,Bristol County,5
25,5,006106,7,U,1,1,00000195,41.718294,-71.182815,INTERSTATE 195 AT BRAGA BRIDGE,MA,Bristol County,5
25,5,006107,3,U,1,1,00000195,41.664286,-71.072765,INTERSTATE 195 AT DARTMOUTH,MA,Bristol County,5
25,5,006107,7,U,1,1,00000195,41.664286,-71.072765,INTERSTATE 195 AT DARTMOUTH,MA,Bristol County,5
25,5,006210,1,U,4,3,00000088,41.61806,-71.077124,VETERANS OF FOREIGN WARS MEMORIAL DRIVE,MA,Bristol County,5
25,5,006210,5,U,4,3,00000088,41.61806,-71.077124,VETERANS OF FOREIGN WARS MEMORIAL DRIVE,MA,Bristol County,5
25,5,006312,1,U,1,1,00000495,41.998615,-71.20358,INTERSTATE 495 SOUTH OF SOUTH MAIN ST. (RTE.140),MA,Bristol County,5
25,5,006312,5,U,1,1,00000495,41.998615,-71.20358,INTERSTATE 495 SOUTH OF SOUTH MAIN ST. (RTE.140),MA,Bristol County,5
25,5,006321,1,U,1,1,00000495,41.979917,-71.157121,INTERSTATE 495 SOUTH OF RTE.123,MA,Bristol County,5
25,5,006321,5,U,1,1,00000495,41.979917,-71.157121,INTERSTATE 495 SOUTH OF RTE.123,MA,Bristol County,5
25,5,006322,1,U,1,1,00000495,41.962224,-71.122614,INTERSTATE 495 SOUTH OF BAY ST.,MA,Bristol County,5
25,5,006322,5,U,1,1,00000495,41.962224,-71.122614,INTERSTATE 495 SOUTH OF BAY ST.,MA,Bristol County,5
25,5,006328,1,U,1,1,00000095,41.991692,-71.292659,INTERSTATE 95 NORTH OF TONER BLVD.,MA,Bristol County,5
25,5,006328,5,U,1,1,00000095,41.991692,-71.292659,INTERSTATE 95 NORTH OF TONER BLVD.,MA,Bristol County,5
25,5,006330,1,U,1,1,00000495,41.959223,-71.069022,INTERSTATE 495 NORTH OF RTE.24,MA,Bristol County,5
25,5,006330,5,U,1,1,00000495,41.959223,-71.069022,INTERSTATE 495 NORTH OF RTE.24,MA,Bristol County,5
25,5,006527,3,U,1,1,00000195,41.682097,-71.130275,INTERSTATE 195 WEST OF RAMP-RT 195 EB TO RT 24 NB,MA,Bristol County,5
25,5,006527,7,U,1,1,00000195,41.682097,-71.130275,INTERSTATE 195 WEST OF RAMP-RT 195 EB TO RT 24 NB,MA,Bristol County,5
25,5,006590,1,U,1,1,00000295,41.950339,-71.367016,INTERSTATE 295 AT RHODE ISLAND STATE LINE,MA,Bristol County,5
25,5,006590,5,U,1,1,00000295,41.950339,-71.367016,INTERSTATE 295 AT RHODE ISLAND STATE LINE,MA,Bristol County,5
25,5,006628,3,U,1,1,00000195,41.74493,-71.213404,INTERSTATE 195 SOUTH OF RTE.6,MA,Bristol County,5
25,5,006628,7,U,1,1,00000195,41.74493,-71.213404,INTERSTATE 195 SOUTH OF RTE.6,MA,Bristol County,5
25,5,006629,3,U,1,1,00000195,41.654255,-70.970608,INTERSTATE 195 AT DARTMOUTH,MA,Bristol County,5
25,5,006629,7,U,1,1,00000195,41.654255,-70.970608,INTERSTATE 195 AT DARTMOUTH,MA,Bristol County,5
25,5,006640,1,U,1,1,00000295,41.953629,-71.316454,INTERSTATE 295 AT NORTH ATTLEBOROUGH,MA,Bristol County,5
25,5,006640,5,U,1,1,00000295,41.953629,-71.316454,INTERSTATE 295 AT NORTH ATTLEBOROUGH,MA,Bristol County,5
25,5,006643,3,U,1,1,00000195,41.806486,-71.339136,INTERSTATE 195 AT RHODE ISLAND STATE LINE,MA,Bristol County,5
25,5,006643,7,U,1,1,00000195,41.806486,-71.339136,INTERSTATE 195 AT RHODE ISLAND STATE LINE,MA,Bristol County,5
25,5,030304,0,U,3,2,0000US44,41.859768,-71.229551,WINTHROP STREET,MA,Bristol County,5
25,5,060103,3,U,1,1,0000I195,41.655494,-71.002694,INTERSTATE 195,MA,Bristol County,5
25,5,060104,7,U,1,1,0000I195,41.655494,-71.002694,INTERSTATE 195,MA,Bristol County,5
25,5,061401,1,U,2,3,0000SR24,42.196021,-71.077645,AMVETS MEMORIAL HIGHWAY,MA,Bristol County,5
25,5,061402,5,U,2,3,0000SR24,42.196021,-71.077645,AMVETS MEMORIAL HIGHWAY,MA,Bristol County,5
25,5,061701,1,U,2,3,000SR140,41.737747,-70.957875,ALFRED BESSETTE MEMORIAL HIGHW,MA,Bristol County,5
25,5,061702,5,U,2,3,000SR140,41.737747,-70.957875,ALFRED BESSETTE MEMORIAL HIGHW,MA,Bristol County,5
25,5,072501,1,U,1,1,0000I495,41.941478,-71.016288,INTERSTATE 495,MA,Bristol County,5
25,5,072502,5,U,1,1,0000I495,41.941478,-71.016288,INTERSTATE 495,MA,Bristol County,5
25,5,250102,9,U,4,3,000SR138,41.75901,-71.139193,COUNTY STREET,MA,Bristol County,5
25,27,000005,1,U,3,3,00000012,42.461362,-71.745886,RTE. 12 NORTH OF RTE.I-190,MA,Worcester County,17
25,27,000005,5,U,3,3,00000012,42.461362,-71.745886,RTE. 12 NORTH OF RTE.I-190,MA,Worcester County,17
25,27,000009,1,R,1,1,00000495,42.416235,-71.604791,INTERSTATE 495 RAMP-RT 62 5O RT 495 NB,MA,Worcester County,17
25,27,000009,5,R,1,1,00000495,42.416235,-71.604791,INTERSTATE 495 RAMP-RT 62 5O RT 495 NB,MA,Worcester County,17
25,27,000022,3,U,1,1,00000290,42.261818,-71.793433,INTERSTATE 290 AT EAST CENTRAL STREET,MA,Worcester County,17
25,27,000022,7,U,1,1,00000290,42.261818,-71.793433,INTERSTATE 290 AT EAST CENTRAL STREET,MA,Worcester County,17
25,27,000023,3,U,4,3,00000002,42.581991,-72.198179,TEMPLETON ROAD EAST OF RTE 32 (MAIN ST.),MA,Worcester County,17
25,27,000023,7,U,4,3,00000002,42.581991,-72.198179,TEMPLETON ROAD EAST OF RTE 32 (MAIN ST.),MA,Worcester County,17
25,27,000034,3,U,2,3,00000002,42.521058,-71.702973,ROUTE 2 WEST OF RTE.70,MA,Worcester County,17
25,27,000034,7,U,2,3,00000002,42.521058,-71.702973,ROUTE 2 WEST OF RTE.70,MA,Worcester County,17
25,27,000044,3,U,2,3,00000002,42.566944,-72.214843,MOHAWK TRAIL EAST OF ORANGE,MA,Worcester County,17
25,27,000044,7,U,2,3,00000002,42.566944,-72.214843,MOHAWK TRAIL EAST OF ORANGE,MA,Worcester County,17
25,27,000303,1,U,4,3,00000012,42.230096,-71.819783,ROUTE 12 SOUTH OF WORCESTER C.L.,MA,Worcester County,17
25,27,000303,5,U,4,3,00000012,42.230096,-71.819783,ROUTE 12 SOUTH OF WORCESTER C.L.,MA,Worcester County,17
25,27,000307,3,U,3,2,Y3000000,42.283321,-71.639066,TURNPIKE ROAD EAST OF NORTHBOROUGH,MA,Worcester County,17
25,27,000307,7,U,3,2,Y3000000,42.283321,-71.639066,TURNPIKE ROAD EAST OF NORTHBOROUGH,MA,Worcester County,17
25,27,000310,1,U,2,3,00000146,42.114978,-71.705125,WORCESTER PROVIDENCE TURNPIKE S OF PURGATORY RD,MA,Worcester County,17
25,27,000310,5,U,2,3,00000146,42.114978,-71.705125,WORCESTER PROVIDENCE TURNPIKE S OF PURGATORY RD,MA,Worcester County,17
25,27,000316,1,U,1,1,00000190,42.329598,-71.802712,INTERSTATE 190 AT MOUNTAIN ST. WEST,MA,Worcester County,17
25,27,000316,5,U,1,1,00000190,42.329598,-71.802712,INTERSTATE 190 AT MOUNTAIN ST. WEST,MA,Worcester County,17
25,27,000321,1,U,4,2,00000202,42.626552,-72.075545,BALDWINVILLE STATE ROAD NORTH OF TEMPLETON,MA,Worcester County,17
25,27,000321,5,U,4,2,00000202,42.626552,-72.075545,BALDWINVILLE STATE ROAD NORTH OF TEMPLETON,MA,Worcester County,17
25,27,000901,1,R,1,1,0000I495,42.406643,-71.608102,INTERSTATE 495,MA,Worcester County,17
25,27,000902,5,R,1,1,0000I495,42.406643,-71.608102,INTERSTATE 495,MA,Worcester County,17
25,27,001701,1,R,1,1,00000I84,42.059825,-72.109498,WILBUR CROSS HIGHWAY,MA,Worcester County,17
25,27,001702,5,R,1,1,00000I84,42.059825,-72.109498,WILBUR CROSS HIGHWAY,MA,Worcester County,17
25,27,002203,3,U,1,1,0000I290,42.262498,-71.79348,INTERSTATE 290,MA,Worcester County,17
25,27,002204,7,U,1,1,0000I290,42.262498,-71.79348,INTERSTATE 290,MA,Worcester County,17
25,27,003001,1,U,1,1,0000I395,42.056931,-71.860459,INTERSTATE 395,MA,Worcester County,17
25,27,003002,5,U,1,1,0000I395,42.056931,-71.860459,INTERSTATE 395,MA,Worcester County,17
25,27,003008,3,U,2,3,00000002,42.541367,-71.892084,ROUTE 2 EAST OF RTE.140,MA,Worcester County,17
25,27,003008,7,U,2,3,00000002,42.541367,-71.892084,ROUTE 2 EAST OF RTE.141,MA,Worcester County,17
25,27,003072,3,U,2,3,00000002,42.527522,-71.533984,CONCORD TURNPIKE AT LITTLETON,MA,Worcester County,17
25,27,003072,7,U,2,3,00000002,42.527522,-71.533984,CONCORD TURNPIKE AT LITTLETON,MA,Worcester County,17
25,27,003118,3,U,1,1,00000290,42.27374,-71.795595,INTERSTATE 290 NORTH OF RTE.9,MA,Worcester County,17
25,27,003118,7,U,1,1,00000290,42.27374,-71.795595,INTERSTATE 290 NORTH OF RTE.9,MA,Worcester County,17
25,27,003140,1,U,4,3,00000122,42.325893,-71.947335,PLEASANT STREET NORTH OF Turkey Hill Brook Bridge,MA,Worcester County,17
25,27,003140,5,U,4,3,00000122,42.325893,-71.947335,PLEASANT STREET NORTH OF Turkey Hill Brook Bridge,MA,Worcester County,17
25,27,003178,3,U,3,2,00000020,42.187155,-71.833901,WASHINGTON STREET EAST OF SOUTH ST.,MA,Worcester County,17
25,27,003178,7,U,3,2,00000020,42.187155,-71.833901,WASHINGTON STREET EAST OF SOUTH ST.,MA,Worcester County,17
25,27,003181,1,U,1,1,00000495,42.286263,-71.567189,INTERSTATE 495 SOUTH OF RTE.9,MA,Worcester County,17
25,27,003181,5,U,1,1,00000495,42.286263,-71.567189,INTERSTATE 495 SOUTH OF RTE.9,MA,Worcester County,17
25,27,003199,1,U,2,3,00000146,42.066774,-71.666126,PROVIDENCE PIKE SOUTH OF RTE.16,MA,Worcester County,17
25,27,003199,5,U,2,3,00000146,42.066774,-71.666126,PROVIDENCE PIKE SOUTH OF RTE.16,MA,Worcester County,17
25,27,003210,1,U,1,1,00000395,42.068837,-71.861357,INTERSTATE 395 NORTH OF RTE.16,MA,Worcester County,17
25,27,003210,5,U,1,1,00000395,42.068837,-71.861357,INTERSTATE 395 NORTH OF RTE.16,MA,Worcester County,17
25,27,003272,3,U,1,1,00000290,42.290467,-71.788282,INTERSTATE 290 EAST OF BURNCOAT ST.,MA,Worcester County,17
25,27,003272,7,U,1,1,00000290,42.290467,-71.788282,INTERSTATE 290 EAST OF BURNCOAT ST.,MA,Worcester County,17
25,27,003289,1,U,1,1,00000395,42.029837,-71.860871,INTERSTATE 395 AT CONNECTICUT STATE LINE,MA,Worcester County,17
25,27,003289,5,U,1,1,00000395,42.029837,-71.860871,INTERSTATE 395 AT CONNECTICUT STATE LINE,MA,Worcester County,17
25,27,003291,1,U,1,1,00000190,42.288762,-71.798036,INTERSTATE 190 NORTH OF RTE.I-290,MA,Worcester County,17
25,27,003291,5,U,1,1,00000190,42.288762,-71.798036,INTERSTATE 190 NORTH OF RTE.I-290,MA,Worcester County,17
25,27,003292,1,U,1,1,00000190,42.30414,-71.807591,INTERSTATE 190 NORTH OF RTE.12,MA,Worcester County,17
25,27,003292,5,U,1,1,00000190,42.30414,-71.807591,INTERSTATE 190 NORTH OF RTE.12,MA,Worcester County,17
25,27,003293,1,U,1,1,00000190,42.343416,-71.802383,INTERSTATE 190 NORTH OF RTE. 12 ( EX. 4 ),MA,Worcester County,17
25,27,003293,5,U,1,1,00000190,42.343416,-71.802383,INTERSTATE 190 NORTH OF RTE. 12 ( EX. 4 ),MA,Worcester County,17
25,27,003294,1,U,1,1,00000190,42.421477,-71.78533,INTERSTATE 190 NORTH OF RTE.140,MA,Worcester County,17
25,27,003294,5,U,1,1,00000190,42.421477,-71.78533,INTERSTATE 190 NORTH OF RTE.140,MA,Worcester County,17
25,27,003295,1,U,1,1,00000190,42.466946,-71.731252,INTERSTATE 190 NORTH OF RTE.12 (EXIT 6),MA,Worcester County,17
25,27,003295,5,U,1,1,00000190,42.466946,-71.731252,INTERSTATE 190 NORTH OF RTE.12 (EXIT 6),MA,Worcester County,17
25,27,003296,1,U,1,1,00000190,42.510703,-71.722381,INTERSTATE 190 NORTH OF RTE.117,MA,Worcester County,17
25,27,003296,5,U,1,1,00000190,42.510703,-71.722381,INTERSTATE 190 NORTH OF RTE.117,MA,Worcester County,17
25,27,003299,1,U,1,1,00000395,42.113222,-71.855154,INTERSTATE 395 SOUTH OF SUTTON AVE.,MA,Worcester County,17
25,27,003299,5,U,1,1,00000395,42.113222,-71.855154,INTERSTATE 395 SOUTH OF SUTTON AVE.,MA,Worcester County,17
25,27,003300,1,U,1,1,00000395,42.136269,-71.856074,INTERSTATE 395 SOUTH OF DEPOT RD,MA,Worcester County,17
25,27,003300,5,U,1,1,00000395,42.136269,-71.856074,INTERSTATE 395 SOUTH OF DEPOT RD,MA,Worcester County,17
25,27,003319,3,U,1,1,00000290,42.325196,-71.705879,INTERSTATE 290 EAST OF RTE.140,MA,Worcester County,17
25,27,003319,7,U,1,1,00000290,42.325196,-71.705879,INTERSTATE 290 EAST OF RTE.140,MA,Worcester County,17
25,27,003320,3,U,1,1,00000290,42.293892,-71.755953,INTERSTATE 290 AT WORCESTER,MA,Worcester County,17
25,27,003320,7,U,1,1,00000290,42.293892,-71.755953,INTERSTATE 290 AT WORCESTER,MA,Worcester County,17
25,27,003321,1,U,1,1,00000495,42.159721,-71.492579,INTERSTATE 495 SOUTH OF RAMP-RT 85 TO RT 495 SB,MA,Worcester County,17
25,27,003321,5,U,1,1,00000495,42.159721,-71.492579,INTERSTATE 495 SOUTH OF RAMP-RT 85 TO RT 495 SB,MA,Worcester County,17
25,27,003322,3,U,1,1,00000290,42.290846,-71.774615,INTERSTATE 290 BTWN. LINCOLN & PLANTATION STS.,MA,Worcester County,17
25,27,003322,7,U,1,1,00000290,42.290846,-71.774615,INTERSTATE 290 BTWN. LINCOLN & PLANTATION STS.,MA,Worcester County,17
25,27,003323,3,U,1,1,00000290,42.320215,-71.721865,INTERSTATE 290 WEST OF RTE.140,MA,Worcester County,17
25,27,003323,7,U,1,1,00000290,42.320215,-71.721865,INTERSTATE 290 WEST OF RTE.140,MA,Worcester County,17
25,27,003326,3,U,1,1,00000290,42.234512,-71.82123,INTERSTATE 290 NORTH OF HOPE AVE,MA,Worcester County,17
25,27,003326,7,U,1,1,00000290,42.234512,-71.82123,INTERSTATE 290 NORTH OF HOPE AVE,MA,Worcester County,17
25,27,003327,1,U,1,1,00000395,42.158075,-71.851989,INTERSTATE 395,MA,Worcester County,17
25,27,003327,5,U,1,1,00000395,42.158075,-71.851989,INTERSTATE 395,MA,Worcester County,17
25,27,003333,3,U,1,1,00000290,42.279477,-71.797584,INTERSTATE 290 NORTH OF LINCOLN ST,MA,Worcester County,17
25,27,003333,7,U,1,1,00000290,42.279477,-71.797584,INTERSTATE 290 NORTH OF LINCOLN ST,MA,Worcester County,17
25,27,003403,3,U,2,3,00000SR2,42.521193,-71.702918,ROUTE 2,MA,Worcester County,17
25,27,003404,7,U,2,3,00000SR2,42.521193,-71.702918,ROUTE 2,MA,Worcester County,17
25,27,003896,3,U,3,0,00000000,42.241629,-71.744529,SUNDERLAND ROAD SOUTH OF WESTBOROUGH ST.,MA,Worcester County,17
25,27,003896,7,U,3,0,00000000,42.241629,-71.744529,SUNDERLAND ROAD SOUTH OF WESTBOROUGH ST.,MA,Worcester County,17
25,27,003921,1,U,1,1,00000084,42.072778,-72.098731,WILBUR CROSS HIGHWAY NORTH OF MASHAPAUG RD.,MA,Worcester County,17
25,27,003921,5,U,1,1,00000084,42.072778,-72.098731,WILBUR CROSS HIGHWAY NORTH OF MASHAPAUG RD.,MA,Worcester County,17
25,27,003929,1,U,1,1,00000084,42.111169,-72.081696,WILBUR CROSS HIGHWAY SOUTH OF RTE.20,MA,Worcester County,17
25,27,003929,5,U,1,1,00000084,42.111169,-72.081696,WILBUR CROSS HIGHWAY SOUTH OF RTE.20,MA,Worcester County,17
25,27,003990,1,U,1,1,00000495,42.300879,-71.564964,INTERSTATE 495 NORTH OF Route 9,MA,Worcester County,17
25,27,003990,5,U,1,1,00000495,42.300879,-71.564964,INTERSTATE 495 NORTH OF Route 9,MA,Worcester County,17
25,27,003991,1,U,3,3,00000146,42.218669,-71.786283,ROUTE 146 NORTH OF Route I-90,MA,Worcester County,17
25,27,003991,5,U,3,3,00000146,42.218669,-71.786283,ROUTE 146 NORTH OF Route I-90,MA,Worcester County,17
25,27,030703,3,U,3,3,00000SR9,42.282449,-71.657045,BOSTON WORCESTER TURNPIKE,MA,Worcester County,17
25,27,030704,7,U,3,3,00000SR9,42.282449,-71.657045,BOSTON WORCESTER TURNPIKE,MA,Worcester County,17
25,27,031001,1,U,3,3,000SR146,42.112365,-71.704997,WORCESTER PROVIDENCE TURNPIKE,MA,Worcester County,17
25,27,031002,5,U,3,3,000SR146,42.112365,-71.704997,WORCESTER PROVIDENCE TURNPIKE,MA,Worcester County,17
25,27,031601,1,U,1,1,00000I90,42.326902,-71.804153,INTERSTATE 190,MA,Worcester County,17
25,27,031602,5,U,1,1,00000I90,42.326902,-71.804153,INTERSTATE 190,MA,Worcester County,17
25,27,032112,9,U,3,2,000US202,42.678838,-72.059304,RIVER STREET,MA,Worcester County,17
25,27,050102,9,U,3,3,0000SR12,42.472543,-71.746702,LEOMINSTER ROAD,MA,Worcester County,17
25,27,230304,0,U,4,3,0000SR2A,42.581959,-72.198318,TEMPLETON ROAD,MA,Worcester County,17
25,11,000006,1,R,1,1,00000091,42.539243,-72.626488,INTERSTATE 91 NORTH OF RTE.116,MA,Franklin County,5
25,11,000006,5,R,1,1,00000091,42.539243,-72.626488,INTERSTATE 91 NORTH OF RTE.116,MA,Franklin County,5
25,11,000203,1,R,5,3,00000112,42.565415,-72.802993,RTE 112 AT ASHFIELD T.L.,MA,Franklin County,5
25,11,000203,5,R,5,3,00000112,42.565415,-72.802993,RTE 112 AT ASHFIELD T.L.,MA,Franklin County,5
25,11,000211,1,R,5,2,00000005,42.521505,-72.606983,RTES.5 & 10 NORTH OF WHATELY T.L.,MA,Franklin County,5
25,11,000211,5,R,5,2,00000005,42.521505,-72.606983,RTES.5 & 10 NORTH OF WHATELY T.L.,MA,Franklin County,5
25,11,000602,1,U,2,1,00000I91,42.511067,-72.622075,INTERSTATE 91,MA,Franklin County,5
25,11,000602,5,U,2,1,00000I91,42.511067,-72.622075,INTERSTATE 91,MA,Franklin County,5
25,11,002012,3,U,3,3,00000002,42.598109,-72.497619,ROUTE 2 at Erving T.L,MA,Franklin County,5
25,11,002012,7,U,3,3,00000002,42.598109,-72.497619,ROUTE 2 at Erving T.L,MA,Franklin County,5
25,11,002264,1,R,4,3,00000010,42.670094,-72.537369,RTE.10 EAST OF Route I-91,MA,Franklin County,5
25,11,002264,5,R,4,3,00000010,42.670094,-72.537369,RTE.10 EAST OF Route I-91,MA,Franklin County,5
25,11,002265,1,U,5,3,00000116,42.492338,-72.632424,ROUTE 116 SOUTH OF South MILL RIVER ROAD,MA,Franklin County,5
25,11,002265,5,U,5,3,00000116,42.492338,-72.632424,ROUTE 116 SOUTH OF South MILL RIVER ROAD,MA,Franklin County,5
25,11,020312,9,R,4,3,000SR112,42.564723,-72.803529,ASHFIELD ROAD,MA,Franklin County,5
25,11,021112,9,R,4,2,00000US5,42.521479,-72.606972,GREENFIELD ROAD,MA,Franklin County,5
25,23,000007,3,U,1,1,00000195,41.670632,-70.82737,I195 WEST OF RAMP-RT 195 EB TO NORTH ST SB,MA,Plymouth County,17
25,23,000007,7,U,1,1,00000195,41.670632,-70.82737,I195 WEST OF RAMP-RT 195 EB TO NORTH ST SB,MA,Plymouth County,17
25,23,000020,1,U,2,3,00000003,41.808304,-70.550472,PILGRIM HIGHWAY north of Bourne,MA,Plymouth County,17
25,23,000020,5,U,2,3,00000003,41.808304,-70.550472,PILGRIM HIGHWAY north of Bourne,MA,Plymouth County,17
25,23,000028,1,U,4,3,00000053,42.193609,-70.919104,Route 53 EAST OF WEYMOUTH TOWN LINE,MA,Plymouth County,17
25,23,000028,5,U,4,3,00000053,42.193609,-70.919104,Route 53 EAST OF WEYMOUTH TOWN LINE,MA,Plymouth County,17
25,23,000029,3,U,4,3,00000139,42.114359,-70.820373,Route 139 WEST OF Route 53,MA,Plymouth County,17
25,23,000029,7,U,4,3,00000139,42.114359,-70.820373,Route 139 WEST OF Route 53,MA,Plymouth County,17
25,23,000036,1,U,2,3,00000003,42.127008,-70.800463,PILGRIM HIGHWAY SOUTH OF RIVER ST,MA,Plymouth County,17
25,23,000036,5,U,2,3,00000003,42.127008,-70.800463,PILGRIM HIGHWAY SOUTH OF RIVER ST,MA,Plymouth County,17
25,23,000703,3,U,3,3,00000123,42.089234,-70.976305,CENTRE STREET AT BROCKTON,MA,Plymouth County,17
25,23,000703,7,U,3,3,00000123,42.089234,-70.976305,CENTRE STREET AT BROCKTON,MA,Plymouth County,17
25,23,000704,7,U,1,1,0000I195,41.669842,-70.829072,INTERSTATE 195,MA,Plymouth County,17
25,23,002001,1,U,2,3,00000SR3,41.820825,-70.556912,PILGRIM HIGHWAY,MA,Plymouth County,17
25,23,002002,5,U,2,3,00000SR3,41.820825,-70.556912,PILGRIM HIGHWAY,MA,Plymouth County,17
25,23,003601,1,U,2,3,00000SR3,42.127034,-70.800525,PILGRIM HIGHWAY,MA,Plymouth County,17
25,23,003602,5,U,2,3,00000SR3,42.127034,-70.800525,PILGRIM HIGHWAY,MA,Plymouth County,17
25,23,003803,3,U,1,1,00000195,41.669842,-70.829072,INTERSTATE 195,MA,Plymouth County,17
25,23,003804,7,U,1,1,00000195,41.669842,-70.829072,INTERSTATE 195,MA,Plymouth County,17
25,23,007021,1,U,2,3,00000024,42.054409,-71.059207,AMVETS MEMORIAL HIGHWAY AT WEST BRIDGEWATER,MA,Plymouth County,17
25,23,007021,5,U,2,3,00000024,42.054409,-71.059207,AMVETS MEMORIAL HIGHWAY AT WEST BRIDGEWATER,MA,Plymouth County,17
25,23,007022,1,U,2,3,00000024,42.078115,-71.062723,AMVETS MEMORIAL HIGHWAY NORTH OF RTE.123,MA,Plymouth County,17
25,23,007022,5,U,2,3,00000024,42.078115,-71.062723,AMVETS MEMORIAL HIGHWAY NORTH OF RTE.123,MA,Plymouth County,17
25,23,007023,1,U,1,1,00000495,41.887504,-70.933035,INTERSTATE 495 NORTH OF RTE.105,MA,Plymouth County,17
25,23,007023,5,U,1,1,00000495,41.887504,-70.933035,INTERSTATE 495 NORTH OF RTE.105,MA,Plymouth County,17
25,23,007044,1,U,2,3,00000024,42.00042,-71.034954,AMVETS MEMORIAL HIGHWAY AT BRIDGEWATER,MA,Plymouth County,17
25,23,007044,5,U,2,3,00000024,42.00042,-71.034954,AMVETS MEMORIAL HIGHWAY AT BRIDGEWATER,MA,Plymouth County,17
25,23,007100,1,U,1,1,00000495,41.812516,-70.789837,INTERSTATE 495 AT ROCHESTER,MA,Plymouth County,17
25,23,007100,5,U,1,1,00000495,41.812516,-70.789837,INTERSTATE 495 AT ROCHESTER,MA,Plymouth County,17
25,23,007111,1,U,1,1,00000495,41.879308,-70.913053,INTERSTATE 495 BTWN. RTES.28 & 105,MA,Plymouth County,17
25,23,007111,5,U,1,1,00000495,41.879308,-70.913053,INTERSTATE 495 BTWN. RTES.28 & 105,MA,Plymouth County,17
25,23,007116,1,U,1,1,00000495,41.805223,-70.767374,Blue Star Memorial Hwy SOUTH OF RTE.58,MA,Plymouth County,17
25,23,007116,5,U,1,1,00000495,41.805223,-70.767374,Blue Star Memorial Hwy SOUTH OF RTE.58,MA,Plymouth County,17
25,23,007181,3,U,1,1,00000195,41.698409,-70.800139,INTERSTATE 195 AT MARION,MA,Plymouth County,17
25,23,007181,7,U,1,1,00000195,41.698409,-70.800139,INTERSTATE 195 AT MARION,MA,Plymouth County,17
25,23,007183,3,U,1,1,00000195,41.73877,-70.766306,INTERSTATE 195 AT WAREHAM,MA,Plymouth County,17
25,23,007183,7,U,1,1,00000195,41.73877,-70.766306,INTERSTATE 195 AT WAREHAM,MA,Plymouth County,17
25,23,007185,3,U,2,3,00000025,41.775568,-70.706124,Blue Star Memorial Hwy EAST OF I-195,MA,Plymouth County,17
25,23,007185,7,U,2,3,00000025,41.775568,-70.706124,Blue Star Memorial Hwy EAST OF I-195,MA,Plymouth County,17
25,23,007318,1,U,2,3,00000003,42.172708,-70.908145,SOUTHEAST EXPRESSWAY NORTH OF RAMP-RT 3SB TO RT228,MA,Plymouth County,17
25,23,007318,5,U,2,3,00000003,42.172708,-70.908145,SOUTHEAST EXPRESSWAY NORTH OF RAMP-RT 3SB TO RT228,MA,Plymouth County,17
25,23,070334,0,U,3,3,000SR123,42.089429,-70.975928,CENTRE STREET,MA,Plymouth County,17
25,23,0H8165,1,U,2,3,00000003,42.172708,-70.908145,SOUTHEAST EXPRESSWAY 0.4 mile S. of Derby St,MA,Plymouth County,17
25,23,0H8165,5,U,2,3,00000003,42.172708,-70.908145,SOUTHEAST EXPRESSWAY 0.4 mile S. of Derby St,MA,Plymouth County,17
25,17,000008,3,U,1,1,00000290,42.361207,-71.59744,INTERSTATE 290 WEST OF RAMP-RT 290 EB TO RT 495 SB,MA,Middlesex County,17
25,17,000008,7,U,1,1,00000290,42.361207,-71.59744,INTERSTATE 290 WEST OF RAMP-RT 290 EB TO RT 495 SB,MA,Middlesex County,17
25,17,000014,1,U,1,1,00000095,42.498125,-71.165024,YANKEE DIVISION HIGHWAY SOUTH OF RTE.38,MA,Middlesex County,17
25,17,000014,5,U,1,1,00000095,42.498125,-71.165024,YANKEE DIVISION HIGHWAY SOUTH OF RTE.38,MA,Middlesex County,17
25,17,000019,1,U,2,2,00000003,42.601373,-71.322611,ROUTE 3 SOUTH OF RTE.I-495,MA,Middlesex County,17
25,17,000019,5,U,2,2,00000003,42.601373,-71.322611,ROUTE 3 SOUTH OF RTE.I-495,MA,Middlesex County,17
25,17,000021,3,U,4,3,00000113,42.649491,-71.379162,PAWTUCKET BOULEVARD WEST OF Lowell C.L.,MA,Middlesex County,17
25,17,000021,7,U,4,3,00000113,42.649491,-71.379162,PAWTUCKET BOULEVARD WEST OF Lowell C.L.,MA,Middlesex County,17
25,17,000032,1,U,1,1,00000095,42.345417,-71.26251,YANKEE DIVISION HIGHWAY SOUTH OF RTE. 20,MA,Middlesex County,17
25,17,000032,5,U,1,1,00000095,42.345417,-71.26251,YANKEE DIVISION HIGHWAY SOUTH OF RTE. 20,MA,Middlesex County,17
25,17,000082,1,U,1,1,00000093,42.446904,-71.104941,INTERSTATE 93 AT STONEHAM TOWN LINE,MA,Middlesex County,17
25,17,000082,5,U,1,1,00000093,42.446904,-71.104941,INTERSTATE 93 AT STONEHAM TOWN LINE,MA,Middlesex County,17
25,17,000390,1,U,1,1,00000495,42.330435,-71.57431,INTERSTATE 495 SOUTH OF Route 20,MA,Middlesex County,17
25,17,000390,5,U,1,1,00000495,42.330435,-71.57431,INTERSTATE 495 SOUTH OF Route 20,MA,Middlesex County,17
25,17,000403,3,U,3,3,00000002,42.466437,-71.394159,ELM STREET EAST OF REFORMATORY CIRCLE,MA,Middlesex County,17
25,17,000403,7,U,3,3,00000002,42.466437,-71.394159,ELM STREET EAST OF REFORMATORY CIRCLE,MA,Middlesex County,17
25,17,000407,1,U,3,3,00000028,42.501479,-71.101395,ROUTE 28 SOUTH OF READING T.L.,MA,Middlesex County,17
25,17,000407,5,U,3,3,00000028,42.501479,-71.101395,ROUTE 28 SOUTH OF READING T.L.,MA,Middlesex County,17
25,17,000411,1,U,3,3,00000027,42.263825,-71.362167,NORTH MAIN STREET AT NATICK T.L.,MA,Middlesex County,17
25,17,000411,5,U,3,3,00000027,42.263825,-71.362167,NORTH MAIN STREET AT NATICK T.L.,MA,Middlesex County,17
25,17,000414,1,U,1,1,00000495,42.599815,-71.362704,INTERSTATE 495 SOUTH OF RTE.4,MA,Middlesex County,17
25,17,000414,5,U,1,1,00000495,42.599815,-71.362704,INTERSTATE 495 SOUTH OF RTE.4,MA,Middlesex County,17
25,17,000415,1,U,1,1,00000095,42.334715,-71.256717,YANKEE DIVISION HIGHWAY,MA,Middlesex County,17
25,17,000415,5,U,1,1,00000095,42.334715,-71.256717,YANKEE DIVISION HIGHWAY,MA,Middlesex County,17
25,17,000803,3,U,1,1,0000I290,42.361064,-71.597149,INTERSTATE 290,MA,Middlesex County,17
25,17,000804,7,U,1,1,0000I290,42.361064,-71.597149,INTERSTATE 290,MA,Middlesex County,17
25,17,000822,3,U,2,3,00000002,42.40067,-71.151912,CONCORD TURNPIKE,MA,Middlesex County,17
25,17,000822,7,U,2,3,00000002,42.40067,-71.151912,CONCORD TURNPIKE,MA,Middlesex County,17
25,17,001401,1,U,1,1,00000I95,42.497873,-71.166295,YANKEE DIVISION HIGHWAY,MA,Middlesex County,17
25,17,001402,5,U,1,1,00000I95,42.497873,-71.166295,YANKEE DIVISION HIGHWAY,MA,Middlesex County,17
25,17,001403,5,U,1,1,00000I95,42.497873,-71.166295,YANKEE DIVISION HIGHWAY,MA,Middlesex County,17
25,17,001404,5,U,1,1,00000I95,42.497873,-71.166295,YANKEE DIVISION HIGHWAY,MA,Middlesex County,17
25,17,003201,1,U,1,1,00000I95,42.35169,-71.264376,YANKEE DIVISION HIGHWAY,MA,Middlesex County,17
25,17,003202,5,U,1,1,00000I95,42.35169,-71.264376,YANKEE DIVISION HIGHWAY,MA,Middlesex County,17
25,17,004010,1,U,1,1,00000495,42.480548,-71.549069,INTERSTATE 495 SOUTH OF RAMP-RT 111 TO RT 495 SB,MA,Middlesex County,17
25,17,004010,5,U,1,1,00000495,42.480548,-71.549069,INTERSTATE 495 SOUTH OF RAMP-RT 111 TO RT 495 SB,MA,Middlesex County,17
25,17,004013,3,U,3,3,00000002,42.433163,-71.269015,CAMBRIDGE TURNPIKE AT LEXINGTON TOWN LINE,MA,Middlesex County,17
25,17,004013,7,U,3,3,00000002,42.433163,-71.269015,CAMBRIDGE TURNPIKE AT LEXINGTON TOWN LINE,MA,Middlesex County,17
25,17,004020,1,U,1,1,00000495,42.551178,-71.469607,INTERSTATE 495 NORTH OF RAMP-RT 119 TO RT 495 NB,MA,Middlesex County,17
25,17,004020,5,U,1,1,00000495,42.551178,-71.469607,INTERSTATE 495 NORTH OF RAMP-RT 119 TO RT 495 NB,MA,Middlesex County,17
25,17,004033,1,U,1,1,00000495,42.626637,-71.273792,INTERSTATE 495 AT RTE.38,MA,Middlesex County,17
25,17,004033,5,U,1,1,00000495,42.626637,-71.273792,INTERSTATE 495 AT RTE.38,MA,Middlesex County,17
25,17,004048,1,U,2,2,Y2000000,42.620359,-71.353002,ROUTE 3‹¨«AT LOWELL,MA,Middlesex County,17
25,17,004048,5,U,2,2,Y2000000,42.620359,-71.353002,ROUTE 3‹¨«AT LOWELL,MA,Middlesex County,17
25,17,004049,1,U,1,1,00000095,42.502869,-71.124497,YANKEE DIVISION HIGHWAY SOUTH OF RTE.I-93,MA,Middlesex County,17
25,17,004049,5,U,1,1,00000095,42.502869,-71.124497,YANKEE DIVISION HIGHWAY SOUTH OF RTE.I-93,MA,Middlesex County,17
25,17,004065,1,U,1,1,00000095,42.421127,-71.256977,YANKEE DIVISION HIGHWAY SOUTH OF RAMP-RT 2 EB,MA,Middlesex County,17
25,17,004065,5,U,1,1,00000095,42.421127,-71.256977,YANKEE DIVISION HIGHWAY SOUTH OF RAMP-RT 2 EB,MA,Middlesex County,17
25,17,004071,1,U,2,2,Y2000000,42.580812,-71.307717,ROUTE 3‹¨«AT CHELMSFORD,MA,Middlesex County,17
25,17,004071,5,U,2,2,Y2000000,42.580812,-71.307717,ROUTE 3‹¨«AT CHELMSFORD,MA,Middlesex County,17
25,17,004079,1,U,2,2,00000087,42.631465,-71.315723,LOWELL CONNECTOR NORTH OF BOSTON RD,MA,Middlesex County,17
25,17,004079,5,U,2,2,00000087,42.631465,-71.315723,LOWELL CONNECTOR NORTH OF BOSTON RD,MA,Middlesex County,17
25,17,004080,1,U,2,2,00000087,42.620821,-71.32007,LOWELL CONNECTOR NORTH OF BOSTON RD,MA,Middlesex County,17
25,17,004080,5,U,2,2,00000087,42.620821,-71.32007,LOWELL CONNECTOR NORTH OF BOSTON RD,MA,Middlesex County,17
25,17,004089,1,U,1,1,00000495,42.367718,-71.593989,INTERSTATE 495 NORTH OF I-290,MA,Middlesex County,17
25,17,004089,5,U,1,1,00000495,42.367718,-71.593989,INTERSTATE 495 NORTH OF I-290,MA,Middlesex County,17
25,17,004090,1,U,1,1,00000495,42.515262,-71.514108,INTERSTATE 495 SOUTH OF RAMP-RT 495 NB TO RT 2 EB,MA,Middlesex County,17
25,17,004090,5,U,1,1,00000495,42.515262,-71.514108,INTERSTATE 495 SOUTH OF RAMP-RT 495 NB TO RT 2 EB,MA,Middlesex County,17
25,17,004091,1,U,1,1,00000495,42.5239,-71.505358,INTERSTATE 495 NORTH OF RAMP-RT 2 WB TO RT 495 NB,MA,Middlesex County,17
25,17,004091,5,U,1,1,00000495,42.5239,-71.505358,INTERSTATE 495 NORTH OF RAMP-RT 2 WB TO RT 495 NB,MA,Middlesex County,17
25,17,004094,1,U,1,1,00000495,42.634738,-71.249546,INTERSTATE 495 SOUTH OF RTE.133,MA,Middlesex County,17
25,17,004094,5,U,1,1,00000495,42.634738,-71.249546,INTERSTATE 495 SOUTH OF RTE.133,MA,Middlesex County,17
25,17,004095,1,U,1,1,00000093,42.579015,-71.15329,INTERSTATE 93 NORTH OF RAMP-RT 62 TO RT 93 NB,MA,Middlesex County,17
25,17,004095,5,U,1,1,00000093,42.579015,-71.15329,INTERSTATE 93 NORTH OF RAMP-RT 62 TO RT 93 NB,MA,Middlesex County,17
25,17,004097,1,U,1,1,00000093,42.518235,-71.131625,INTERSTATE 93 NORTH OF RTE.I- 95(128),MA,Middlesex County,17
25,17,004097,5,U,1,1,00000093,42.518235,-71.131625,INTERSTATE 93 NORTH OF RTE.I- 95(128),MA,Middlesex County,17
25,17,004098,1,U,1,1,00000093,42.488993,-71.11755,INTERSTATE 93 SOUTH OF RTE.I- 95(128),MA,Middlesex County,17
25,17,004098,5,U,1,1,00000093,42.488993,-71.11755,INTERSTATE 93 SOUTH OF RTE.I- 95(128),MA,Middlesex County,17
25,17,004099,1,U,1,1,00000093,42.475382,-71.111483,INTERSTATE 93 SOUTH OF MONTVALE AVE.,MA,Middlesex County,17
25,17,004099,5,U,1,1,00000093,42.475382,-71.111483,INTERSTATE 93 SOUTH OF MONTVALE AVE.,MA,Middlesex County,17
25,17,004114,1,U,2,2,00000087,42.605858,-71.32028,LOWELL CONNECTOR SOUTH OF RAMP-LOWELL CONN NB,MA,Middlesex County,17
25,17,004114,5,U,2,2,00000087,42.605858,-71.32028,LOWELL CONNECTOR SOUTH OF RAMP-LOWELL CONN NB,MA,Middlesex County,17
25,17,004118,1,U,1,1,00000095,42.461603,-71.257617,YANKEE DIVISION HIGHWAY NORTH OF RAMP-RT 95 SB,MA,Middlesex County,17
25,17,004118,5,U,1,1,00000095,42.461603,-71.257617,YANKEE DIVISION HIGHWAY NORTH OF RAMP-RT 95 SB,MA,Middlesex County,17
25,17,004119,1,U,1,1,00000095,42.383359,-71.263184,YANKEE DIVISION HIGHWAY SOUTH OF WINTER ST.,MA,Middlesex County,17
25,17,004119,5,U,1,1,00000095,42.383359,-71.263184,YANKEE DIVISION HIGHWAY SOUTH OF WINTER ST.,MA,Middlesex County,17
25,17,004120,1,U,1,1,00000095,42.407903,-71.258499,YANKEE DIVISION HIGHWAY NORTH OF WINTER ST.,MA,Middlesex County,17
25,17,004120,5,U,1,1,00000095,42.407903,-71.258499,YANKEE DIVISION HIGHWAY NORTH OF WINTER ST.,MA,Middlesex County,17
25,17,004121,1,U,1,1,00000095,42.519725,-71.053776,YANKEE DIVISION HIGHWAY,MA,Middlesex County,17
25,17,004121,5,U,1,1,00000095,42.519725,-71.053776,YANKEE DIVISION HIGHWAY,MA,Middlesex County,17
25,17,004137,1,U,1,1,00000095,42.521263,-71.085951,YANKEE DIVISION HIGHWAY NORTH OF NORTH AVE.,MA,Middlesex County,17
25,17,004137,5,U,1,1,00000095,42.521263,-71.085951,YANKEE DIVISION HIGHWAY NORTH OF NORTH AVE.,MA,Middlesex County,17
25,17,004138,1,U,1,1,00000095,42.43399,-71.259604,YANKEE DIVISION HIGHWAY N OF RAMP-RT 2WB TO 95NB,MA,Middlesex County,17
25,17,004138,5,U,1,1,00000095,42.43399,-71.259604,YANKEE DIVISION HIGHWAY N OF RAMP-RT 2WB TO 95NB,MA,Middlesex County,17
25,17,004139,1,U,1,1,00000495,42.614412,-71.30048,INTERSTATE 495 AT LOWELL CONNECTOR,MA,Middlesex County,17
25,17,004139,5,U,1,1,00000495,42.614412,-71.30048,INTERSTATE 495 AT LOWELL CONNECTOR,MA,Middlesex County,17
25,17,004140,1,U,1,1,00000095,42.472109,-71.241413,YANKEE DIVISION HIGHWAY RAMP-RTS 4 NB & 225 WB,MA,Middlesex County,17
25,17,004140,5,U,1,1,00000095,42.472109,-71.241413,YANKEE DIVISION HIGHWAY RAMP-RTS 4 NB & 225 WB,MA,Middlesex County,17
25,17,004147,1,U,1,1,00000095,42.505135,-71.097155,YANKEE DIVISION HIGHWAY NORTH OF RTE.28,MA,Middlesex County,17
25,17,004147,5,U,1,1,00000095,42.505135,-71.097155,YANKEE DIVISION HIGHWAY NORTH OF RTE.28,MA,Middlesex County,17
25,17,004158,1,U,1,1,00000095,42.502661,-71.106084,YANKEE DIVISION HIGHWAY NORTH OF RTE.I-93,MA,Middlesex County,17
25,17,004158,5,U,1,1,00000095,42.502661,-71.106084,YANKEE DIVISION HIGHWAY NORTH OF RTE.I-93,MA,Middlesex County,17
25,17,004159,1,U,1,1,00000095,42.501258,-71.142472,YANKEE DIVISION HIGHWAY NORTH OF RTE.38,MA,Middlesex County,17
25,17,004159,5,U,1,1,00000095,42.501258,-71.142472,YANKEE DIVISION HIGHWAY NORTH OF RTE.38,MA,Middlesex County,17
25,17,004160,1,U,1,1,00000095,42.482332,-71.201567,YANKEE DIVISION HIGHWAY NORTH OF RT 3,MA,Middlesex County,17
25,17,004160,5,U,1,1,00000095,42.482332,-71.201567,YANKEE DIVISION HIGHWAY NORTH OF RT 3,MA,Middlesex County,17
25,17,004164,1,U,1,1,00000495,42.352718,-71.579932,INTERSTATE 495 SOUTH OF RAMP-RT 290EB TO RT 495 SB,MA,Middlesex County,17
25,17,004164,5,U,1,1,00000495,42.352718,-71.579932,INTERSTATE 495 SOUTH OF RAMP-RT 290EB TO RT 495 SB,MA,Middlesex County,17
25,17,004165,1,U,1,1,00000095,42.331803,-71.254625,YANKEE DIVISION HIGHWAY NORTH OF RAMP-RT 16 WB,MA,Middlesex County,17
25,17,004165,5,U,1,1,00000095,42.331803,-71.254625,YANKEE DIVISION HIGHWAY NORTH OF RAMP-RT 16 WB,MA,Middlesex County,17
25,17,004170,1,U,1,1,00000495,42.60317,-71.353015,INTERSTATE 495 NORTH OF RTE.4,MA,Middlesex County,17
25,17,004170,5,U,1,1,00000495,42.60317,-71.353015,INTERSTATE 495 NORTH OF RTE.4,MA,Middlesex County,17
25,17,004171,1,U,1,1,00000095,42.477393,-71.216498,YANKEE DIVISION HIGHWAY,MA,Middlesex County,17
25,17,004171,5,U,1,1,00000095,42.477393,-71.216498,YANKEE DIVISION HIGHWAY,MA,Middlesex County,17
25,17,004285,1,U,1,1,00000495,42.606999,-71.331492,INTERSTATE 495 SOUTH OF RTE.3,MA,Middlesex County,17
25,17,004285,5,U,1,1,00000495,42.606999,-71.331492,INTERSTATE 495 SOUTH OF RTE.3,MA,Middlesex County,17
25,17,004423,1,U,1,1,00000095,42.52683,-71.07299,YANKEE DIVISION HIGHWAY NORTH OF RTE.129,MA,Middlesex County,17
25,17,004423,5,U,1,1,00000095,42.52683,-71.07299,YANKEE DIVISION HIGHWAY NORTH OF RTE.129,MA,Middlesex County,17
25,17,004427,1,U,1,1,00000495,42.545719,-71.485919,INTERSTATE 495,MA,Middlesex County,17
25,17,004427,5,U,1,1,00000495,42.545719,-71.485919,INTERSTATE 495,MA,Middlesex County,17
25,17,004504,1,U,1,1,00000095,42.493417,-71.184951,YANKEE DIVISION HIGHWAY NORTH OF RAMP-RT 95 SB,MA,Middlesex County,17
25,17,004504,5,U,1,1,00000095,42.493417,-71.184951,YANKEE DIVISION HIGHWAY NORTH OF RAMP-RT 95 SB,MA,Middlesex County,17
25,17,004796,1,U,1,1,00000495,42.239646,-71.553919,INTERSTATE 495 SOUTH OF RAMP-RT 90 TO RT 495 SB,MA,Middlesex County,17
25,17,004796,5,U,1,1,00000495,42.239646,-71.553919,INTERSTATE 495 SOUTH OF RAMP-RT 90 TO RT 495 SB,MA,Middlesex County,17
25,17,004797,1,U,1,1,00000495,42.198932,-71.539404,INTERSTATE 495 AT MILFORD TOWN LINE,MA,Middlesex County,17
25,17,004797,5,U,1,1,00000495,42.198932,-71.539404,INTERSTATE 495 AT MILFORD TOWN LINE,MA,Middlesex County,17
25,17,004798,3,U,2,3,00000002,42.41908,-71.218446,CONCORD HIGHWAY WEST OF RAMP-PLEASANT ST TO RT 2,MA,Middlesex County,17
25,17,004798,7,U,2,3,00000002,42.41908,-71.218446,CONCORD HIGHWAY WEST OF RAMP-PLEASANT ST TO RT 2,MA,Middlesex County,17
25,17,004803,1,U,1,1,00000093,42.509247,-71.123562,INTERSTATE 93 NORTH OF INTERSTATE 95,MA,Middlesex County,17
25,17,004803,5,U,1,1,00000093,42.509247,-71.123562,INTERSTATE 93 NORTH OF INTERSTATE 95,MA,Middlesex County,17
25,17,004950,3,U,3,3,00000002,42.444817,-71.34729,CONCORD TURNPIKE WEST OF WALDEN STREET,MA,Middlesex County,17
25,17,004950,7,U,3,3,00000002,42.444817,-71.34729,CONCORD TURNPIKE WEST OF WALDEN STREET,MA,Middlesex County,17
25,17,008011,1,U,1,1,00000093,42.416323,-71.10387,INTERSTATE 93 SOUTH OF RAMP-RT 93 NB TO RT 60,MA,Middlesex County,17
25,17,008011,5,U,1,1,00000093,42.416323,-71.10387,INTERSTATE 93 SOUTH OF RAMP-RT 93 NB TO RT 60,MA,Middlesex County,17
25,17,008096,1,U,1,1,00000093,42.42416,-71.10326,INTERSTATE 93 SOUTH OF RAMP-RT 28 TO RT 93 SB,MA,Middlesex County,17
25,17,008096,5,U,1,1,00000093,42.42416,-71.10326,INTERSTATE 93 SOUTH OF RAMP-RT 28 TO RT 93 SB,MA,Middlesex County,17
25,17,008098,1,U,1,1,00000093,42.397435,-71.090678,INTERSTATE 93 AT MEDFORD,MA,Middlesex County,17
25,17,008098,5,U,1,1,00000093,42.397435,-71.090678,INTERSTATE 93 AT MEDFORD,MA,Middlesex County,17
25,17,008099,1,U,1,1,00000093,42.406031,-71.099285,INTERSTATE 93 RAMP-RT 93 SB TO MYSTIC AVE,MA,Middlesex County,17
25,17,008099,5,U,1,1,00000093,42.406031,-71.099285,INTERSTATE 93 RAMP-RT 93 SB TO MYSTIC AVE,MA,Middlesex County,17
25,17,008201,1,U,1,1,00000I93,42.448859,-71.104402,INTERSTATE 93,MA,Middlesex County,17
25,17,008202,5,U,1,1,00000I93,42.448859,-71.104402,INTERSTATE 93,MA,Middlesex County,17
25,17,014011,1,U,1,1,00000I95,42.497873,-71.166295,YANKEE DIVISION HIGHWAY,MA,Middlesex County,17
25,17,039001,1,U,1,1,0000I495,42.333399,-71.575795,INTERSTATE 495,MA,Middlesex County,17
25,17,039002,5,U,1,1,0000I495,42.333399,-71.575795,INTERSTATE 495,MA,Middlesex County,17
25,17,040334,0,U,2,2,00000SR2,42.466245,-71.393218,ELM STREET,MA,Middlesex County,17
25,17,040701,1,U,3,2,0000SR28,42.498641,-71.100769,MAIN STREET,MA,Middlesex County,17
25,17,040702,5,U,3,2,0000SR28,42.498641,-71.100769,MAIN STREET,MA,Middlesex County,17
25,17,041112,9,U,3,2,0000SR27,42.264803,-71.361254,SOUTH MAIN STREET,MA,Middlesex County,17
25,17,041401,1,U,1,1,0000I495,42.600591,-71.3613,INTERSTATE 495,MA,Middlesex County,17
25,17,041402,5,U,1,1,0000I495,42.600591,-71.3613,INTERSTATE 495,MA,Middlesex County,17
25,17,041501,1,U,1,1,00000I95,42.335508,-71.257361,YANKEE DIVISION HIGHWAY,MA,Middlesex County,17
25,17,041502,5,U,1,1,00000I95,42.335508,-71.257361,YANKEE DIVISION HIGHWAY,MA,Middlesex County,17
25,17,0H8449,1,U,1,1,00000093,42.399038,-71.092757,INTERSTATE 93 0.1 mile N. of Shore Dr,MA,Middlesex County,17
25,17,0H8449,5,U,1,1,00000093,42.399038,-71.092757,INTERSTATE 93 0.1 mile N. of Shore Dr,MA,Middlesex County,17
25,17,0H8450,1,U,1,1,00000093,42.406031,-71.099285,INTERSTATE 93 0.6 mile S. of Riverside Ave,MA,Middlesex County,17
25,17,0H8450,5,U,1,1,00000093,42.406031,-71.099285,INTERSTATE 93 0.6 mile S. of Riverside Ave,MA,Middlesex County,17
25,17,0H8451,1,U,1,1,00000093,42.422391,-71.1035,INTERSTATE 93 400 feet N. of Webster St,MA,Middlesex County,17
25,17,0H8451,5,U,1,1,00000093,42.422391,-71.1035,INTERSTATE 93 400 feet N. of Webster St,MA,Middlesex County,17
25,17,0H8452,1,U,1,1,00000093,42.433737,-71.102249,INTERSTATE 93 0.5 Mile North of Fellsway W,MA,Middlesex County,17
25,17,0H8452,5,U,1,1,00000093,42.433737,-71.102249,INTERSTATE 93 0.5 Mile North of Fellsway W,MA,Middlesex County,17
25,17,0H8453,1,U,1,1,00000093,42.461526,-71.102662,INTERSTATE 93,MA,Middlesex County,17
25,17,0H8453,5,U,1,1,00000093,42.461526,-71.102662,INTERSTATE 93,MA,Middlesex County,17
25,17,0H8454,1,U,1,1,00000093,42.475352,-71.111462,INTERSTATE 93,MA,Middlesex County,17
25,17,0H8454,5,U,1,1,00000093,42.475352,-71.111462,INTERSTATE 93,MA,Middlesex County,17
25,17,0H8455,1,U,1,1,00000093,42.495565,-71.117834,INTERSTATE 93 0.3 mile N. of Salem St,MA,Middlesex County,17
25,17,0H8455,5,U,1,1,00000093,42.495565,-71.117834,INTERSTATE 93 0.3 mile N. of Salem St,MA,Middlesex County,17
25,17,0H8456,1,U,1,1,00000093,42.513354,-71.127637,INTERSTATE 93 0.3 mile N. of West St,MA,Middlesex County,17
25,17,0H8456,5,U,1,1,00000093,42.513354,-71.127637,INTERSTATE 93 0.3 mile N. of West St,MA,Middlesex County,17
25,17,0H8457,1,U,1,1,00000093,42.533257,-71.135435,INTERSTATE 93 0.3 mile S. of Lowell St (Rt. 129),MA,Middlesex County,17
25,17,0H8457,5,U,1,1,00000093,42.533257,-71.135435,INTERSTATE 93 0.3 mile S. of Lowell St (Rt. 129),MA,Middlesex County,17
25,17,0H8458,1,U,1,1,00000093,42.54603,-71.135995,INTERSTATE 93 0.5 mile S. of Concord St,MA,Middlesex County,17
25,17,0H8458,5,U,1,1,00000093,42.54603,-71.135995,INTERSTATE 93 0.5 mile S. of Concord St,MA,Middlesex County,17
25,17,0H8459,1,U,1,1,00000093,42.565651,-71.144946,INTERSTATE 93 0.3 mile S. of Woburn St,MA,Middlesex County,17
25,17,0H8459,5,U,1,1,00000093,42.565651,-71.144946,INTERSTATE 93 0.3 mile S. of Woburn St,MA,Middlesex County,17
25,17,0H8460,1,U,1,1,00000093,42.580423,-71.154649,INTERSTATE 93 250 feet N. of Rt. 62,MA,Middlesex County,17
25,17,0H8460,5,U,1,1,00000093,42.580423,-71.154649,INTERSTATE 93 250 feet N. of Rt. 62,MA,Middlesex County,17
25,17,0H8495,1,U,1,1,00000093,42.387655,-71.079204,INTERSTATE 93 410 feet N. of A Alfred Lombardi St,MA,Middlesex County,17
25,17,0H8495,5,U,1,1,00000093,42.387655,-71.079204,INTERSTATE 93 410 feet N. of A Alfred Lombardi St,MA,Middlesex County,17
25,17,0H8503,1,U,1,1,00000095,42.337559,-71.259132,I-95 360 feet S. of Recreation Rd,MA,Middlesex County,17
25,17,0H8503,5,U,1,1,00000095,42.337559,-71.259132,I-95 360 feet S. of Recreation Rd,MA,Middlesex County,17
25,17,0H8504,1,U,1,1,00000095,42.355199,-71.267722,YANKEE DIVISION HIGHWAY 0.2 mile S. of River Rd,MA,Middlesex County,17
25,17,0H8504,5,U,1,1,00000095,42.355199,-71.267722,YANKEE DIVISION HIGHWAY 0.2 mile S. of River Rd,MA,Middlesex County,17
25,17,0H8505,1,U,1,1,00000095,42.365261,-71.269962,YANKEE DIVISION HIGHWAY 0.3 mile S of EB Weston St,MA,Middlesex County,17
25,17,0H8505,5,U,1,1,00000095,42.365261,-71.269962,YANKEE DIVISION HIGHWAY 0.3 mile S of EB Weston St,MA,Middlesex County,17
25,17,0H8506,1,U,1,1,00000095,42.385559,-71.262277,YANKEE DIVISION HIGHWAY 0.6 mile N. of Main St,MA,Middlesex County,17
25,17,0H8506,5,U,1,1,00000095,42.385559,-71.262277,YANKEE DIVISION HIGHWAY 0.6 mile N. of Main St,MA,Middlesex County,17
25,17,0H8507,1,U,1,1,00000095,42.407903,-71.258499,YANKEE DIVISION HIGHWAY 0.5 mile S. of Trapelo Rd,MA,Middlesex County,17
25,17,0H8507,5,U,1,1,00000095,42.407903,-71.258499,YANKEE DIVISION HIGHWAY 0.5 mile S. of Trapelo Rd,MA,Middlesex County,17
25,17,0H8508,1,U,1,1,00000095,42.418221,-71.257172,I-95 0.2 mile N. of Trapelo Rd,MA,Middlesex County,17
25,17,0H8508,5,U,1,1,00000095,42.418221,-71.257172,I-95 0.2 mile N. of Trapelo Rd,MA,Middlesex County,17
25,17,0H8509,1,U,1,1,00000095,42.441819,-71.257683,YANKEE DIVISION HIGHWAY 0.1 mile N. of Lincoln St,MA,Middlesex County,17
25,17,0H8509,5,U,1,1,00000095,42.441819,-71.257683,YANKEE DIVISION HIGHWAY 0.1 mile N. of Lincoln St,MA,Middlesex County,17
25,17,0H8510,1,U,1,1,00000095,42.4594,-71.259201,I-95 1.4 mile N. of Mass Ave,MA,Middlesex County,17
25,17,0H8510,5,U,1,1,00000095,42.4594,-71.259201,I-95 1.4 mile N. of Mass Ave,MA,Middlesex County,17
25,17,0H8511,1,U,1,1,00000095,42.473413,-71.234979,YANKEE DIVISION HIGHWAY 810 feet N. of Grove St,MA,Middlesex County,17
25,17,0H8511,5,U,1,1,00000095,42.473413,-71.234979,YANKEE DIVISION HIGHWAY 810 feet N. of Grove St,MA,Middlesex County,17
25,17,0H8512,1,U,1,1,00000095,42.482332,-71.201567,I-95 0.5 mile N. of Middlesex Tpke,MA,Middlesex County,17
25,17,0H8512,5,U,1,1,00000095,42.482332,-71.201567,I-95 0.5 mile N. of Middlesex Tpke,MA,Middlesex County,17
25,17,0H8513,1,U,1,1,00000095,42.492219,-71.186852,I-95 0.4 mile N. of Cambridge St (US-3),MA,Middlesex County,17
25,17,0H8513,5,U,1,1,00000095,42.492219,-71.186852,I-95 0.4 mile N. of Cambridge St (US-3),MA,Middlesex County,17
25,17,0H8514,1,U,1,1,00000095,42.498161,-71.166534,I-95 0.6 mile N. of Winn St,MA,Middlesex County,17
25,17,0H8514,5,U,1,1,00000095,42.498161,-71.166534,I-95 0.6 mile N. of Winn St,MA,Middlesex County,17
25,17,0H8515,1,U,1,1,00000095,42.50198,-71.139214,I-95 0.2 mile N. of Mishawum Rd,MA,Middlesex County,17
25,17,0H8515,5,U,1,1,00000095,42.50198,-71.139214,I-95 0.2 mile N. of Mishawum Rd,MA,Middlesex County,17
25,17,0H8516,1,U,1,1,00000095,42.503159,-71.125519,I-95 Loc On 280 feet N. of Washington St,MA,Middlesex County,17
25,17,0H8516,5,U,1,1,00000095,42.503159,-71.125519,I-95 Loc On 280 feet N. of Washington St,MA,Middlesex County,17
25,17,210304,0,U,4,3,000SR113,42.661805,-71.400736,PAWTUCKET BOULEVARD,MA,Middlesex County,17
25,17,H12562,1,U,1,1,00000093,42.586275,-71.159493,INTERSTATE 93,MA,Middlesex County,17
25,17,H12562,5,U,1,1,00000093,42.586275,-71.159493,INTERSTATE 93,MA,Middlesex County,17
25,17,H13137,3,U,1,1,00000090,42.34643,-71.243169,MASSACHUSETTS TURNPIKE (I-90) 0.6 Mile East of I-9,MA,Middlesex County,17
25,17,H13137,7,U,1,1,00000090,42.34643,-71.243169,MASSACHUSETTS TURNPIKE (I-90) 0.6 Mile East of I-9,MA,Middlesex County,17
25,17,H13138,3,U,1,1,00000090,42.350849,-71.208667,I-90 0.02 Mile East of Chestnut Street,MA,Middlesex County,17
25,17,H13138,7,U,1,1,00000090,42.350849,-71.208667,I-90 0.02 Mile East of Chestnut Street,MA,Middlesex County,17
25,17,H13139,3,U,1,1,00000090,42.350849,-71.208667,I-90 0.2 Mile East of Walnut Street,MA,Middlesex County,17
25,17,H13139,7,U,1,1,00000090,42.350849,-71.208667,I-90 0.2 Mile East of Walnut Street,MA,Middlesex County,17
25,17,H13140,3,U,1,1,00000090,42.357627,-71.173482,MASSACHUSETTS TURNPIKE 0.3M East of St. James St,MA,Middlesex County,17
25,17,H13140,7,U,1,1,00000090,42.357627,-71.173482,MASSACHUSETTS TURNPIKE 0.3M East of St. James St,MA,Middlesex County,17
25,21,000010,1,U,1,1,00000495,42.026914,-71.257251,INTERSTATE 495 SOUTH OF RTE. I-95,MA,Norfolk County,17
25,21,000010,5,U,1,1,00000495,42.026914,-71.257251,INTERSTATE 495 SOUTH OF RTE. I-95,MA,Norfolk County,17
25,21,000013,1,U,3,3,00000138,42.239635,-71.10822,"BLUE HILL AVENUE, ATHERTON STREET ‹¨«",MA,Norfolk County,17
25,21,000013,5,U,3,3,00000138,42.239635,-71.10822,"BLUE HILL AVENUE, ATHERTON STREET ‹¨«",MA,Norfolk County,17
25,21,000039,1,U,3,3,00000027,42.205465,-71.339344,Route 27,MA,Norfolk County,17
25,21,000039,5,U,3,3,00000027,42.205465,-71.339344,Route 27,MA,Norfolk County,17
25,21,000041,1,U,1,1,00000095,42.273165,-71.198759,YANKEE DIVISION HIGHWAY N OF RAMP-GREAT PLAIN AVE,MA,Norfolk County,17
25,21,000041,5,U,1,1,00000095,42.273165,-71.198759,YANKEE DIVISION HIGHWAY N OF RAMP-GREAT PLAIN AVE,MA,Norfolk County,17
25,21,000077,1,U,1,1,00000093,42.235349,-71.023205,INTERSTATE 93,MA,Norfolk County,17
25,21,000077,5,U,1,1,00000093,42.235349,-71.023205,INTERSTATE 93,MA,Norfolk County,17
25,21,000614,1,U,2,3,00000024,42.183096,-71.075981,AMVETS MEMORIAL HIGHWAY ON SO. & NO. RAMPS OF I93,MA,Norfolk County,17
25,21,000614,5,U,2,3,00000024,42.183096,-71.075981,AMVETS MEMORIAL HIGHWAY ON SO. & NO. RAMPS OF I93,MA,Norfolk County,17
25,21,000691,1,U,1,1,00000093,42.210223,-71.046649,YANKEE DIVISION HIGHWAY NORTH OF RTE.28,MA,Norfolk County,17
25,21,000691,5,U,1,1,00000093,42.210223,-71.046649,YANKEE DIVISION HIGHWAY NORTH OF RTE.28,MA,Norfolk County,17
25,21,004101,1,U,1,1,00000I95,42.273706,-71.198725,YANKEE DIVISION HIGHWAY,MA,Norfolk County,17
25,21,004102,5,U,1,1,00000I95,42.273706,-71.198725,YANKEE DIVISION HIGHWAY,MA,Norfolk County,17
25,21,006004,1,U,1,1,00000095,42.236724,-71.191958,YANKEE DIVISION HIGHWAY S OF RAMP-RT 95NB TO 109EB,MA,Norfolk County,17
25,21,006004,5,U,1,1,00000095,42.236724,-71.191958,YANKEE DIVISION HIGHWAY S OF RAMP-RT 95NB TO 109EB,MA,Norfolk County,17
25,21,006093,1,U,1,1,00000095,42.067456,-71.228007,INTERSTATE 95 NORTH OF RAMP-RT 140 NB TO RT 95 NB,MA,Norfolk County,17
25,21,006093,5,U,1,1,00000095,42.067456,-71.228007,INTERSTATE 95 NORTH OF RAMP-RT 140 NB TO RT 95 NB,MA,Norfolk County,17
25,21,006094,1,U,1,2,Y1000000,42.11146,-71.2319,INTERSTATE 95‹¨«SOUTH OF RTE. 1,MA,Norfolk County,17
25,21,006094,5,U,1,2,Y1000000,42.11146,-71.2319,INTERSTATE 95‹¨«SOUTH OF RTE. 1,MA,Norfolk County,17
25,21,006096,1,U,1,1,00000095,42.202364,-71.143011,INTERSTATE 95 SOUTH OF RAMP-RT 95 NB TO RT 93 NB,MA,Norfolk County,17
25,21,006096,5,U,1,1,00000095,42.202364,-71.143011,INTERSTATE 95 SOUTH OF RAMP-RT 95 NB TO RT 93 NB,MA,Norfolk County,17
25,21,006097,1,U,1,1,00000093,42.203017,-71.127545,YANKEE DIVISION HIGHWAY RAMP-RT 93 NB TO RT 138 SB,MA,Norfolk County,17
25,21,006097,5,U,1,1,00000093,42.203017,-71.127545,YANKEE DIVISION HIGHWAY RAMP-RT 93 NB TO RT 138 SB,MA,Norfolk County,17
25,21,006125,1,U,1,1,00000495,42.103402,-71.44673,INTERSTATE 495 AT FRANKLIN TOWN LINE,MA,Norfolk County,17
25,21,006125,5,U,1,1,00000495,42.103402,-71.44673,INTERSTATE 495 AT FRANKLIN TOWN LINE,MA,Norfolk County,17
25,21,006126,1,U,1,1,00000495,42.08787,-71.425113,INTERSTATE 495 SOUTH OF RAMP-RT 495 NB TO RT 140,MA,Norfolk County,17
25,21,006126,5,U,1,1,00000495,42.08787,-71.425113,INTERSTATE 495 SOUTH OF RAMP-RT 495 NB TO RT 140,MA,Norfolk County,17
25,21,006127,1,U,1,1,00000495,42.04767,-71.362527,INTERSTATE 495 NORTH OF RTE.1A,MA,Norfolk County,17
25,21,006127,5,U,1,1,00000495,42.04767,-71.362527,INTERSTATE 495 NORTH OF RTE.1A,MA,Norfolk County,17
25,21,006128,1,U,1,1,00000495,42.037744,-71.33015,INTERSTATE 495 NORTH OF RTE.1,MA,Norfolk County,17
25,21,006128,5,U,1,1,00000495,42.037744,-71.33015,INTERSTATE 495 NORTH OF RTE.1,MA,Norfolk County,17
25,21,006132,1,U,1,1,00000095,42.26874,-71.201027,YANKEE DIVISION HIGHWAY AT NEEDHAM TOWN LINE,MA,Norfolk County,17
25,21,006132,5,U,1,1,00000095,42.26874,-71.201027,YANKEE DIVISION HIGHWAY AT NEEDHAM TOWN LINE,MA,Norfolk County,17
25,21,006161,1,U,1,1,00000095,42.305981,-71.226221,YANKEE DIVISION HIGHWAY SOUTH OF RAMP-RT 9 EB,MA,Norfolk County,17
25,21,006161,5,U,1,1,00000095,42.305981,-71.226221,YANKEE DIVISION HIGHWAY SOUTH OF RAMP-RT 9 EB,MA,Norfolk County,17
25,21,006189,1,U,1,1,00000095,42.256553,-71.208439,YANKEE DIVISION HIGHWAY NORTH OF RAMP-RT 109 WB,MA,Norfolk County,17
25,21,006189,5,U,1,1,00000095,42.256553,-71.208439,YANKEE DIVISION HIGHWAY NORTH OF RAMP-RT 109 WB,MA,Norfolk County,17
25,21,006205,1,U,1,1,00000095,42.225791,-71.177311,YANKEE DIVISION HIGHWAY SOUTH OF RTE.1,MA,Norfolk County,17
25,21,006205,5,U,1,1,00000095,42.225791,-71.177311,YANKEE DIVISION HIGHWAY SOUTH OF RTE.1,MA,Norfolk County,17
25,21,006207,1,U,2,2,00000001,42.212679,-71.182781,BOSTON PROVIDENCE TURNPIKE AT NORWOOD,MA,Norfolk County,17
25,21,006207,5,U,2,2,00000001,42.212679,-71.182781,BOSTON PROVIDENCE TURNPIKE AT NORWOOD,MA,Norfolk County,17
25,21,006223,1,U,1,1,00000093,42.203418,-71.106987,YANKEE DIVISION HIGHWAY AT MILTON TOWN LINE,MA,Norfolk County,17
25,21,006223,5,U,1,1,00000093,42.203418,-71.106987,YANKEE DIVISION HIGHWAY AT MILTON TOWN LINE,MA,Norfolk County,17
25,21,006227,1,U,1,1,00000093,42.202568,-71.089639,YANKEE DIVISION HIGHWAY BTW RTE24 AND PONKAPOAG RD,MA,Norfolk County,17
25,21,006227,5,U,1,1,00000093,42.202568,-71.089639,YANKEE DIVISION HIGHWAY BTW RTE24 AND PONKAPOAG RD,MA,Norfolk County,17
25,21,006228,1,U,1,1,00000095,42.216966,-71.156453,YANKEE DIVISION HIGHWAY NORTH OF RAMP-RT 95 SB,MA,Norfolk County,17
25,21,006228,5,U,1,1,00000095,42.216966,-71.156453,YANKEE DIVISION HIGHWAY NORTH OF RAMP-RT 95 SB,MA,Norfolk County,17
25,21,006237,1,U,2,3,00000024,42.153039,-71.067939,AMVETS MEMORIAL HIGHWAY SOUTH OF RTE.139,MA,Norfolk County,17
25,21,006237,5,U,2,3,00000024,42.153039,-71.067939,AMVETS MEMORIAL HIGHWAY SOUTH OF RTE.139,MA,Norfolk County,17
25,21,006238,1,U,2,3,00000024,42.113156,-71.059602,AMVETS MEMORIAL HIGHWAY SOUTH OF POND ST.,MA,Norfolk County,17
25,21,006238,5,U,2,3,00000024,42.113156,-71.059602,AMVETS MEMORIAL HIGHWAY SOUTH OF POND ST.,MA,Norfolk County,17
25,21,006242,1,U,1,1,00000095,42.144203,-71.206923,INTERSTATE 95 NORTH OF RTE.1,MA,Norfolk County,17
25,21,006242,5,U,1,1,00000095,42.144203,-71.206923,INTERSTATE 95 NORTH OF RTE.1,MA,Norfolk County,17
25,21,006247,1,U,1,1,00000495,42.028246,-71.260186,INTERSTATE 495 NORTH OF RAMP-RT 495 SB TO RT 95 SB,MA,Norfolk County,17
25,21,006247,5,U,1,1,00000495,42.028246,-71.260186,INTERSTATE 495 NORTH OF RAMP-RT 495 SB TO RT 95 SB,MA,Norfolk County,17
25,21,006248,1,U,1,1,00000095,42.028786,-71.253488,INTERSTATE 95 NORTH OF RAMP-RT 495 NB TO RT 95 NB,MA,Norfolk County,17
25,21,006248,5,U,1,1,00000095,42.028786,-71.253488,INTERSTATE 95 NORTH OF RAMP-RT 495 NB TO RT 95 NB,MA,Norfolk County,17
25,21,006255,1,U,2,3,00000003,42.195881,-70.959457,PILGRIM HIGHWAY NORTH OF RTE.18,MA,Norfolk County,17
25,21,006255,5,U,2,3,00000003,42.195881,-70.959457,PILGRIM HIGHWAY NORTH OF RTE.18,MA,Norfolk County,17
25,21,006278,1,U,1,1,00000093,42.203991,-71.070634,INTERSTATE 93 BTWN. RTES.24 & 28,MA,Norfolk County,17
25,21,006278,5,U,1,1,00000093,42.203991,-71.070634,INTERSTATE 93 BTWN. RTES.24 & 28,MA,Norfolk County,17
25,21,006345,1,U,1,1,00000095,42.319956,-71.244411,YANKEE DIVISION HIGHWAY NORTH OF RTE.9,MA,Norfolk County,17
25,21,006345,5,U,1,1,00000095,42.319956,-71.244411,YANKEE DIVISION HIGHWAY NORTH OF RTE.9,MA,Norfolk County,17
25,21,006354,1,U,1,1,00000095,42.209478,-71.143358,YANKEE DIVISION HIGHWAY AT DEDHAM TOWN LINE,MA,Norfolk County,17
25,21,006354,5,U,1,1,00000095,42.209478,-71.143358,YANKEE DIVISION HIGHWAY AT DEDHAM TOWN LINE,MA,Norfolk County,17
25,21,006386,1,U,1,1,00000093,42.223426,-71.030018,INTERSTATE 93 RAMP-RT 37 NB TO RT 93 NB,MA,Norfolk County,17
25,21,006386,5,U,1,1,00000093,42.223426,-71.030018,INTERSTATE 93 RAMP-RT 37 NB TO RT 93 NB,MA,Norfolk County,17
25,21,006646,1,U,2,3,00000003,42.18861,-70.936085,PILGRIM HIGHWAY SOUTH OF RTE. 18,MA,Norfolk County,17
25,21,006646,5,U,2,3,00000003,42.18861,-70.936085,PILGRIM HIGHWAY SOUTH OF RTE. 18,MA,Norfolk County,17
25,21,006647,1,U,4,2,00000001,42.008146,-71.322335,WASHINGTON STREET SOUTH OF SHEPARD STREET,MA,Norfolk County,17
25,21,006647,5,U,4,2,00000001,42.008146,-71.322335,WASHINGTON STREET SOUTH OF SHEPARD STREET,MA,Norfolk County,17
25,21,008050,1,U,3,3,0000003A,42.24464,-70.967671,ROUTE 3A,MA,Norfolk County,17
25,21,008050,5,U,3,3,0000003A,42.24464,-70.967671,ROUTE 3A,MA,Norfolk County,17
25,21,008931,1,U,1,1,00000093,42.236823,-71.023425,INTERSTATE 93 NORTH OF BRAINTREE SPLIT,MA,Norfolk County,17
25,21,008931,5,U,1,1,00000093,42.236823,-71.023425,INTERSTATE 93 NORTH OF BRAINTREE SPLIT,MA,Norfolk County,17
25,21,008933,1,U,1,1,00000093,42.276028,-71.049647,SERGEANT WILLIAM G WALSH EXPRESSWAY,MA,Norfolk County,17
25,21,008933,5,U,1,1,00000093,42.276028,-71.049647,SERGEANT WILLIAM G WALSH EXPRESSWAY,MA,Norfolk County,17
25,21,069101,1,U,1,1,00000I93,42.210263,-71.046566,YANKEE DIVISION HIGHWAY,MA,Norfolk County,17
25,21,069102,5,U,1,1,00000I93,42.210263,-71.046566,YANKEE DIVISION HIGHWAY,MA,Norfolk County,17
25,21,0H8163,1,U,2,9,00000000,42.194141,-70.958196,"RAMP-RT 3 SB TO RT 18 SB, 0.1 mile N. of Front St",MA,Norfolk County,17
25,21,0H8163,5,U,2,9,00000000,42.194141,-70.958196,"RAMP-RT 3 SB TO RT 18 SB, 0.1 mile N. of Front St",MA,Norfolk County,17
25,21,0H8164,1,U,2,9,00000000,42.212856,-70.99718,RAMP-RT 3 SB TO UNION ST 0.6 mile S. of Elm St,MA,Norfolk County,17
25,21,0H8164,5,U,2,9,00000000,42.212856,-70.99718,RAMP-RT 3 SB TO UNION ST 0.6 mile S. of Elm St,MA,Norfolk County,17
25,21,0H8166,1,U,2,3,00000003,42.18861,-70.936085,PILGRIM HIGHWAY SR-3 0.1 mile S. of Pleasant St,MA,Norfolk County,17
25,21,0H8166,5,U,2,3,00000003,42.18861,-70.936085,PILGRIM HIGHWAY SR-3 0.1 mile S. of Pleasant St,MA,Norfolk County,17
25,21,0H8167,1,U,2,3,00000003,42.202322,-70.980717,PILGRIM HIGHWAY (SR-3) 0.1 mile S. of Liberty St,MA,Norfolk County,17
25,21,0H8167,5,U,2,3,00000003,42.202322,-70.980717,PILGRIM HIGHWAY (SR-3) 0.1 mile S. of Liberty St,MA,Norfolk County,17
25,21,0H8461,1,U,2,9,00000000,42.226757,-71.006699,RAMP-BURGIN PKWY TO RT3 50 Ydrs N of Washington St,MA,Norfolk County,17
25,21,0H8461,5,U,2,9,00000000,42.226757,-71.006699,RAMP-BURGIN PKWY TO RT3 50 Ydrs N of Washington St,MA,Norfolk County,17
25,21,0H8462,1,U,2,3,00000024,42.171276,-71.072994,AMVETS MEMORIAL HIGHWAY 1.0 mile N of Lindelof Ave,MA,Norfolk County,17
25,21,0H8462,5,U,2,3,00000024,42.171276,-71.072994,AMVETS MEMORIAL HIGHWAY 1.0 mile N of Lindelof Ave,MA,Norfolk County,17
25,21,0H8463,1,U,2,3,00000024,42.183635,-71.076374,AMVETS MEMORIAL HIGHWAY 0.5 mile N. of Canton St,MA,Norfolk County,17
25,21,0H8463,5,U,2,3,00000024,42.183635,-71.076374,AMVETS MEMORIAL HIGHWAY 0.5 mile N. of Canton St,MA,Norfolk County,17
25,21,0H8483,1,U,1,1,00000093,42.247674,-71.036626,INTERSTATE 93 260 feet N. of Bates Ave,MA,Norfolk County,17
25,21,0H8483,5,U,1,1,00000093,42.247674,-71.036626,INTERSTATE 93 260 feet N. of Bates Ave,MA,Norfolk County,17
25,21,0H8484,1,U,1,1,00000093,42.203456,-71.130673,YANKEE DIVISION HIGHWAY .2 mile S of Washington St,MA,Norfolk County,17
25,21,0H8484,5,U,1,1,00000093,42.203456,-71.130673,YANKEE DIVISION HIGHWAY .2 mile S of Washington St,MA,Norfolk County,17
25,21,0H8485,1,U,1,1,00000093,42.203304,-71.098779,YANKEE DIVISION HIGHWAY .3m S. of Ponkapoag Trail,MA,Norfolk County,17
25,21,0H8485,5,U,1,1,00000093,42.203304,-71.098779,YANKEE DIVISION HIGHWAY .3m S. of Ponkapoag Trail,MA,Norfolk County,17
25,21,0H8486,1,U,1,1,00000093,42.204658,-71.067271,INTERSTATE 93,MA,Norfolk County,17
25,21,0H8486,5,U,1,1,00000093,42.204658,-71.067271,INTERSTATE 93,MA,Norfolk County,17
25,21,0H8487,1,U,1,1,00000093,42.207984,-71.051612,YANKEE DIVISION HIGHWAY 0.7 mile N. of N Main St,MA,Norfolk County,17
25,21,0H8487,5,U,1,1,00000093,42.207984,-71.051612,YANKEE DIVISION HIGHWAY 0.7 mile N. of N Main St,MA,Norfolk County,17
25,21,0H8488,1,U,1,1,00000093,42.221234,-71.034189,INTERSTATE 93 0.2 mile S. of Granite St (Rt. 37),MA,Norfolk County,17
25,21,0H8488,5,U,1,1,00000093,42.221234,-71.034189,INTERSTATE 93 0.2 mile S. of Granite St (Rt. 37),MA,Norfolk County,17
25,21,0H8489,1,U,1,1,00000093,42.235517,-71.023517,INTERSTATE 93 0.3 mile S. of Furnace Brook Pkwy,MA,Norfolk County,17
25,21,0H8489,5,U,1,1,00000093,42.235517,-71.023517,INTERSTATE 93 0.3 mile S. of Furnace Brook Pkwy,MA,Norfolk County,17
25,21,0H8490,1,U,1,1,00000093,42.267169,-71.047209,I-93 0.3 mile N. of Squantum St,MA,Norfolk County,17
25,21,0H8490,5,U,1,1,00000093,42.267169,-71.047209,I-93 0.3 mile N. of Squantum St,MA,Norfolk County,17
25,21,0H8496,1,U,1,1,00000095,42.225791,-71.177311,I-95 0.3 mile S. of Boston-Providence Pk,MA,Norfolk County,17
25,21,0H8496,5,U,1,1,00000095,42.225791,-71.177311,I-95 0.3 mile S. of Boston-Providence Pk,MA,Norfolk County,17
25,21,0H8497,1,U,1,1,00000095,42.236724,-71.191958,YANKEE DIVISION HIGHWAY,MA,Norfolk County,17
25,21,0H8497,5,U,1,1,00000095,42.236724,-71.191958,YANKEE DIVISION HIGHWAY,MA,Norfolk County,17
25,21,0H8498,1,U,1,1,00000095,42.250299,-71.210732,YANKEE DIVISION HIGHWAY,MA,Norfolk County,17
25,21,0H8498,5,U,1,1,00000095,42.250299,-71.210732,YANKEE DIVISION HIGHWAY,MA,Norfolk County,17
25,21,0H8499,1,U,1,1,00000095,42.287112,-71.208759,YANKEE DIVISION HIGHWAY 0.6m N. of Great Plain Ave,MA,Norfolk County,17
25,21,0H8499,5,U,1,1,00000095,42.287112,-71.208759,YANKEE DIVISION HIGHWAY 0.6m N. of Great Plain Ave,MA,Norfolk County,17
25,21,0H8500,1,U,1,1,00000095,42.294032,-71.216703,YANKEE DIVISION HIGHWAY 480 feet S of Kendrick St,MA,Norfolk County,17
25,21,0H8500,5,U,1,1,00000095,42.294032,-71.216703,YANKEE DIVISION HIGHWAY 480 feet S of Kendrick St,MA,Norfolk County,17
25,21,0H8501,1,U,1,1,00000095,42.307669,-71.227304,YANKEE DIVISION HIGHWAY 0.2 mile S of Central Ave,MA,Norfolk County,17
25,21,0H8501,5,U,1,1,00000095,42.307669,-71.227304,YANKEE DIVISION HIGHWAY 0.2 mile S of Central Ave,MA,Norfolk County,17
25,21,0H8502,1,U,1,1,00000095,42.319745,-71.244352,I-95 0.5 mile S. of Quinobequin Rd,MA,Norfolk County,17
25,21,0H8502,5,U,1,1,00000095,42.319745,-71.244352,I-95 0.5 mile S. of Quinobequin Rd,MA,Norfolk County,17
25,21,H13387,1,U,1,1,00000095,42.216966,-71.156453,YANKEE DIVISION HIGHWAY 0.38M N of University Ave,MA,Norfolk County,17
25,21,H13387,5,U,1,1,00000095,42.216966,-71.156453,YANKEE DIVISION HIGHWAY 0.38M N of University Ave,MA,Norfolk County,17
25,15,000011,1,U,4,2,00000005,42.344505,-72.642902,Routes 5 & 10 SOUTH OF HATFIELD T.L.,MA,Hampshire County,5
25,15,000011,5,U,4,2,00000005,42.344505,-72.642902,Routes 5 & 10 SOUTH OF HATFIELD T.L.,MA,Hampshire County,5
25,15,000130,1,R,4,3,00000112,42.253333,-72.867153,WORTHINGTON ROAD 1.5 MI.S.OF JCT.OF RTES.66 & 112,MA,Hampshire County,5
25,15,000130,5,R,4,3,00000112,42.253333,-72.867153,WORTHINGTON ROAD 1.5 MI.S.OF JCT.OF RTES.66 & 112,MA,Hampshire County,5
25,15,002164,1,R,5,3,00000112,42.470712,-72.809604,ROUTE 112 SOUTH OF ASHFIELD T.L.,MA,Hampshire County,5
25,15,002164,5,R,5,3,00000112,42.470712,-72.809604,ROUTE 112 SOUTH OF ASHFIELD T.L.,MA,Hampshire County,5
25,15,002396,1,R,1,1,00000091,42.383071,-72.631397,INTERSTATE 91 NORTH OF CHESTNUT ST.,MA,Hampshire County,5
25,15,002396,5,R,1,1,00000091,42.383071,-72.631397,INTERSTATE 91 NORTH OF CHESTNUT ST.,MA,Hampshire County,5
25,15,002405,1,U,1,1,00000091,42.342505,-72.640681,INTERSTATE 91 NORTH OF RAMP-RT 5 NB TO RT 91 NB,MA,Hampshire County,5
25,15,002405,5,U,1,1,00000091,42.342505,-72.640681,INTERSTATE 91 NORTH OF RAMP-RT 5 NB TO RT 91 NB,MA,Hampshire County,5
25,15,002425,1,U,1,1,00000091,42.337837,-72.630433,INTERSTATE 91 BTWN. RTE.9 & DAMON RD.,MA,Hampshire County,5
25,15,002425,5,U,1,1,00000091,42.337837,-72.630433,INTERSTATE 91 BTWN. RTE.9 & DAMON RD.,MA,Hampshire County,5
25,15,002436,1,U,1,1,00000091,42.329382,-72.617618,INTERSTATE 91 BTWN. RTES.5 & 9,MA,Hampshire County,5
25,15,002436,5,U,1,1,00000091,42.329382,-72.617618,INTERSTATE 91 BTWN. RTES.5 & 9,MA,Hampshire County,5
25,15,002452,1,U,1,1,00000091,42.286487,-72.619903,INTERSTATE 91 AT HOLYOKE,MA,Hampshire County,5
25,15,002452,5,U,1,1,00000091,42.286487,-72.619903,INTERSTATE 91 AT HOLYOKE,MA,Hampshire County,5
25,15,013012,9,R,4,3,000SR112,42.253359,-72.867068,WORTHINGTON ROAD,MA,Hampshire County,5
25,15,110102,9,U,4,2,00000US5,42.358978,-72.638207,NORTH KING STREET,MA,Hampshire County,5
25,9,000012,3,U,4,3,00000110,42.809958,-71.035376,AMESBURY ROAD WEST OF MERRIMAC,MA,Essex County,17
25,9,000012,7,U,4,3,00000110,42.809958,-71.035376,AMESBURY ROAD WEST OF MERRIMAC,MA,Essex County,17
25,9,000500,1,U,1,1,00000495,42.810443,-71.027934,INTERSTATE 495 AT MERRIMAC,MA,Essex County,17
25,9,000500,5,U,1,1,00000495,42.810443,-71.027934,INTERSTATE 495 AT MERRIMAC,MA,Essex County,17
25,9,000502,1,U,3,3,00000114,42.668251,-71.119162,ROUTE 114 NORTH OF ANDOVER BY-PASS,MA,Essex County,17
25,9,000502,5,U,3,3,00000114,42.668251,-71.119162,ROUTE 114 NORTH OF ANDOVER BY-PASS,MA,Essex County,17
25,9,000511,1,U,1,1,00000093,42.692485,-71.207129,INTERSTATE 93 NORTH OF RTE.I-495,MA,Essex County,17
25,9,000511,5,U,1,1,00000093,42.692485,-71.207129,INTERSTATE 93 NORTH OF RTE.I-495,MA,Essex County,17
25,9,000550,1,U,3,2,00000001,42.555942,-70.979547,NEWBURY STREET AT PEABODY CITY LINE,MA,Essex County,17
25,9,000550,5,U,3,2,00000001,42.555942,-70.979547,NEWBURY STREET AT PEABODY CITY LINE,MA,Essex County,17
25,9,000595,1,U,1,1,00000095,42.515536,-71.014498,YANKEE DIVISION HIGHWAY SOUTH OF PEABODY CITY LINE,MA,Essex County,17
25,9,000595,5,U,1,1,00000095,42.515536,-71.014498,YANKEE DIVISION HIGHWAY SOUTH OF PEABODY CITY LINE,MA,Essex County,17
25,9,001801,1,U,1,1,00000I95,42.715749,-70.960654,INTERSTATE 95,MA,Essex County,17
25,9,001802,5,U,1,1,00000I95,42.715749,-70.960654,INTERSTATE 95,MA,Essex County,17
25,9,003501,1,U,2,3,00000128,42.574776,-70.873079,YANKEE DIVISION HIGHWAY,MA,Essex County,17
25,9,003502,5,U,2,3,00000128,42.574776,-70.873079,YANKEE DIVISION HIGHWAY,MA,Essex County,17
25,9,005004,1,U,1,1,00000495,42.757735,-71.124213,INTERSTATE 495 AT METHUEN,MA,Essex County,17
25,9,005004,5,U,1,1,00000495,42.757735,-71.124213,INTERSTATE 495 AT METHUEN,MA,Essex County,17
25,9,005007,1,U,1,1,00000095,42.880507,-70.882957,INTERSTATE 95 AT NEW HAMPSHIRE STATE LINE,MA,Essex County,17
25,9,005007,5,U,1,1,00000095,42.880507,-70.882957,INTERSTATE 95 AT NEW HAMPSHIRE STATE LINE,MA,Essex County,17
25,9,005016,1,U,1,1,00000495,42.651408,-71.212238,INTERSTATE 495,MA,Essex County,17
25,9,005016,5,U,1,1,00000495,42.651408,-71.212238,INTERSTATE 495,MA,Essex County,17
25,9,005022,1,U,1,1,00000093,42.608265,-71.172812,INTERSTATE 93 NORTH OF RTE.125,MA,Essex County,17
25,9,005022,5,U,1,1,00000093,42.608265,-71.172812,INTERSTATE 93 NORTH OF RTE.125,MA,Essex County,17
25,9,005048,1,U,1,1,00000095,42.610261,-70.97264,INTERSTATE 95 NORTH OF RTE.1,MA,Essex County,17
25,9,005048,5,U,1,1,00000095,42.610261,-70.97264,INTERSTATE 95 NORTH OF RTE.1,MA,Essex County,17
25,9,005071,1,U,1,1,00000495,42.722303,-71.137372,INTERSTATE 495 AT LAWRENCE,MA,Essex County,17
25,9,005071,5,U,1,1,00000495,42.722303,-71.137372,INTERSTATE 495 AT LAWRENCE,MA,Essex County,17
25,9,005073,1,U,1,1,00000093,42.655139,-71.190031,INTERSTATE 93 NORTH OF RTE.133,MA,Essex County,17
25,9,005073,5,U,1,1,00000093,42.655139,-71.190031,INTERSTATE 93 NORTH OF RTE.133,MA,Essex County,17
25,9,005075,1,U,1,1,00000495,42.675721,-71.167456,INTERSTATE 495 NORTH OF RTE.I-93,MA,Essex County,17
25,9,005075,5,U,1,1,00000495,42.675721,-71.167456,INTERSTATE 495 NORTH OF RTE.I-93,MA,Essex County,17
25,9,005080,1,U,1,1,00000095,42.522038,-70.986184,YANKEE DIVISION HIGHWAY,MA,Essex County,17
25,9,005080,5,U,1,1,00000095,42.522038,-70.986184,YANKEE DIVISION HIGHWAY,MA,Essex County,17
25,9,005084,1,U,1,1,00000095,42.692108,-70.970933,INTERSTATE 95 AT RAMP-RT 97 TO RT 95 NB,MA,Essex County,17
25,9,005084,5,U,1,1,00000095,42.692108,-70.970933,INTERSTATE 95 AT RAMP-RT 97 TO RT 95 NB,MA,Essex County,17
25,9,005085,1,U,1,1,00000095,42.667198,-70.976826,INTERSTATE 95 NORTH OF TOPSFIELD RD.,MA,Essex County,17
25,9,005085,5,U,1,1,00000095,42.667198,-70.976826,INTERSTATE 95 NORTH OF TOPSFIELD RD.,MA,Essex County,17
25,9,005086,1,U,2,3,00000128,42.621139,-70.71695,YANKEE DIVISION HIGHWAY EAST OF RAMP-RT 133,MA,Essex County,17
25,9,005086,5,U,2,3,00000128,42.621139,-70.71695,YANKEE DIVISION HIGHWAY EAST OF RAMP-RT 133,MA,Essex County,17
25,9,005087,1,U,1,1,00000095,42.857339,-70.895981,INTERSTATE 95 AT AMESBURY,MA,Essex County,17
25,9,005087,5,U,1,1,00000095,42.857339,-70.895981,INTERSTATE 95 AT AMESBURY,MA,Essex County,17
25,9,005088,1,U,1,1,00000095,42.83335,-70.912599,INTERSTATE 95 AT AMESBURY,MA,Essex County,17
25,9,005088,5,U,1,1,00000095,42.83335,-70.912599,INTERSTATE 95 AT AMESBURY,MA,Essex County,17
25,9,005093,1,U,1,1,00000093,42.720814,-71.208876,INTERSTATE 93 NORTH OF RTES. 110/113,MA,Essex County,17
25,9,005093,5,U,1,1,00000093,42.720814,-71.208876,INTERSTATE 93 NORTH OF RTES. 110/113,MA,Essex County,17
25,9,005096,1,U,1,1,00000093,42.741134,-71.207393,INTERSTATE 93 AT NEW HAMPSHIRE STATE LINE,MA,Essex County,17
25,9,005096,5,U,1,1,00000093,42.741134,-71.207393,INTERSTATE 93 AT NEW HAMPSHIRE STATE LINE,MA,Essex County,17
25,9,005099,1,U,1,1,00000095,42.513006,-71.034533,YANKEE DIVISION HIGHWAY SOUTH OF RAMP-WALNUT ST,MA,Essex County,17
25,9,005099,5,U,1,1,00000095,42.513006,-71.034533,YANKEE DIVISION HIGHWAY SOUTH OF RAMP-WALNUT ST,MA,Essex County,17
25,9,005110,1,U,1,1,00000495,42.734707,-71.142038,INTERSTATE 495  BTWN. RTES.110 & 213 CONNECTOR,MA,Essex County,17
25,9,005110,5,U,1,1,00000495,42.734707,-71.142038,INTERSTATE 495  BTWN. RTES.110 & 213 CONNECTOR,MA,Essex County,17
25,9,005122,1,U,1,1,00000495,42.778483,-71.116562,INTERSTATE 495 SOUTH OF RTE.97,MA,Essex County,17
25,9,005122,5,U,1,1,00000495,42.778483,-71.116562,INTERSTATE 495 SOUTH OF RTE.97,MA,Essex County,17
25,9,005124,1,U,1,1,00000093,42.697727,-71.20926,INTERSTATE 93 SOUTH OF METHUEN,MA,Essex County,17
25,9,005124,5,U,1,1,00000093,42.697727,-71.20926,INTERSTATE 93 SOUTH OF METHUEN,MA,Essex County,17
25,9,005127,1,U,3,3,00000125,42.601919,-71.128432,ROUTE 125 SOUTH OF Route 28,MA,Essex County,17
25,9,005127,5,U,3,3,00000125,42.601919,-71.128432,ROUTE 125 SOUTH OF Route 28,MA,Essex County,17
25,9,005128,1,U,3,2,00000001,42.787207,-70.879526,NEWBURYPORT TURNPIKE SOUTH OF HANOVER STREET,MA,Essex County,17
25,9,005128,5,U,3,2,00000001,42.787207,-70.879526,NEWBURYPORT TURNPIKE SOUTH OF HANOVER STREET,MA,Essex County,17
25,9,005155,1,U,1,1,00000093,42.634058,-71.180539,INTERSTATE 93 NORTH OF DASCOMB RD,MA,Essex County,17
25,9,005155,5,U,1,1,00000093,42.634058,-71.180539,INTERSTATE 93 NORTH OF DASCOMB RD,MA,Essex County,17
25,9,005184,1,U,1,1,00000095,42.638657,-70.977145,INTERSTATE 95 BTWN. ENDICOTT & TOPSFIELD RDS.,MA,Essex County,17
25,9,005184,5,U,1,1,00000095,42.638657,-70.977145,INTERSTATE 95 BTWN. ENDICOTT & TOPSFIELD RDS.,MA,Essex County,17
25,9,005211,1,U,1,1,00000495,42.767452,-71.120503,INTERSTATE 495,MA,Essex County,17
25,9,005211,5,U,1,1,00000495,42.767452,-71.120503,INTERSTATE 495,MA,Essex County,17
25,9,005215,1,U,1,1,00000495,42.801795,-71.08958,INTERSTATE 495 NORTH OF RTE. 125,MA,Essex County,17
25,9,005215,5,U,1,1,00000495,42.801795,-71.08958,INTERSTATE 495 NORTH OF RTE. 125,MA,Essex County,17
25,9,005234,1,U,1,1,00000495,42.835772,-70.9556,INTERSTATE 495 AT MERRIMAC,MA,Essex County,17
25,9,005234,5,U,1,1,00000495,42.835772,-70.9556,INTERSTATE 495 AT MERRIMAC,MA,Essex County,17
25,9,005238,1,U,1,1,00000495,42.843152,-70.926097,INTERSTATE 495 NORTH OF RTE.150,MA,Essex County,17
25,9,005238,5,U,1,1,00000495,42.843152,-70.926097,INTERSTATE 495 NORTH OF RTE.150,MA,Essex County,17
25,9,005241,1,U,1,1,00000495,42.853975,-70.903726,INTERSTATE 495 AT SALISBURY T.L.,MA,Essex County,17
25,9,005241,5,U,1,1,00000495,42.853975,-70.903726,INTERSTATE 495 AT SALISBURY T.L.,MA,Essex County,17
25,9,005557,1,U,1,1,00000095,42.573106,-70.969646,INTERSTATE 95 SOUTH OF RAMP-RT 62 TO RT 95 SB,MA,Essex County,17
25,9,005557,5,U,1,1,00000095,42.573106,-70.969646,INTERSTATE 95 SOUTH OF RAMP-RT 62 TO RT 95 SB,MA,Essex County,17
25,9,005558,1,U,1,1,00000095,42.584161,-70.962057,INTERSTATE 95 NORTH OF MAPLE STREET,MA,Essex County,17
25,9,005558,5,U,1,1,00000095,42.584161,-70.962057,INTERSTATE 95 NORTH OF MAPLE STREET,MA,Essex County,17
25,9,050001,1,U,1,1,0000I495,42.818568,-71.019867,INTERSTATE 495,MA,Essex County,17
25,9,050002,5,U,1,1,0000I495,42.818568,-71.019867,INTERSTATE 495,MA,Essex County,17
25,9,050201,1,U,3,3,000SR114,42.668419,-71.119408,TURNPIKE STREET,MA,Essex County,17
25,9,050202,5,U,3,3,000SR114,42.668419,-71.119408,TURNPIKE STREET,MA,Essex County,17
25,9,051101,1,U,1,1,00000I93,42.678632,-71.200791,INTERSTATE 93,MA,Essex County,17
25,9,051102,5,U,1,1,00000I93,42.678632,-71.200791,INTERSTATE 93,MA,Essex County,17
25,9,055001,1,U,3,2,00000US1,42.555974,-70.979528,NEWBURY STREET,MA,Essex County,17
25,9,055002,5,U,3,2,00000US1,42.555974,-70.979528,NEWBURY STREET,MA,Essex County,17
25,9,059501,1,U,1,1,00000I95,42.516309,-71.005367,YANKEE DIVISION HIGHWAY,MA,Essex County,17
25,9,059502,5,U,1,1,00000I95,42.516309,-71.005367,YANKEE DIVISION HIGHWAY,MA,Essex County,17
25,9,120304,0,U,4,3,000SR110,42.80989,-71.035519,AMESBURY ROAD,MA,Essex County,17
25,9,H12563,1,U,1,1,00000093,42.608352,-71.173119,INTERSTATE 93 1.4 Mile South of Dascomb Rd,MA,Essex County,17
25,9,H12563,5,U,1,1,00000093,42.608352,-71.173119,INTERSTATE 93 1.4 Mile South of Dascomb Rd,MA,Essex County,17
25,9,H12564,1,U,1,1,00000093,42.625725,-71.177975,INTERSTATE 93 0.03 Mile North of Dascomb Rd,MA,Essex County,17
25,9,H12564,5,U,1,1,00000093,42.625725,-71.177975,INTERSTATE 93 0.03 Mile North of Dascomb Rd,MA,Essex County,17
25,9,H12565,1,U,1,1,00000093,42.634459,-71.180985,INTERSTATE 93 0.5 Mile South of Lowell Street,MA,Essex County,17
25,9,H12565,5,U,1,1,00000093,42.634459,-71.180985,INTERSTATE 93 0.5 Mile South of Lowell Street,MA,Essex County,17
25,9,H12566,1,U,1,1,00000093,42.654716,-71.19013,INTERSTATE 93 0.51 Mile South of I-495,MA,Essex County,17
25,9,H12566,5,U,1,1,00000093,42.654716,-71.19013,INTERSTATE 93 0.51 Mile South of I-495,MA,Essex County,17
25,1,000015,3,U,2,2,00000006,41.693296,-70.378378,MID CAPE HIGHWAY EAST OF RTE.149,MA,Barnstable County,17
25,1,000015,7,U,2,2,00000006,41.693296,-70.378378,MID CAPE HIGHWAY EAST OF RTE.149,MA,Barnstable County,17
25,1,000707,1,U,2,3,00000028,41.749985,-70.591004,BOURNE BRIDGE NORTH OF BOURNE BRIDGE,MA,Barnstable County,17
25,1,000707,5,U,2,3,00000028,41.749985,-70.591004,BOURNE BRIDGE NORTH OF BOURNE BRIDGE,MA,Barnstable County,17
25,1,000708,1,U,2,2,00000006,41.778758,-70.5434,MID-CAPE HIGHWAY EAST OF SAGAMORE BRIDGE,MA,Barnstable County,17
25,1,000708,5,U,2,2,00000006,41.778758,-70.5434,MID-CAPE HIGHWAY EAST OF SAGAMORE BRIDGE,MA,Barnstable County,17
25,1,000709,3,U,3,3,00000028,41.650319,-70.23588,ROUTE 28 EAST OF HIGGINS CROWELL ROAD,MA,Barnstable County,17
25,1,000709,7,U,3,3,00000028,41.650319,-70.23588,ROUTE 28 EAST OF HIGGINS CROWELL ROAD,MA,Barnstable County,17
25,1,000712,1,U,3,3,00000028,41.638637,-70.447809,FALMOUTH ROAD,MA,Barnstable County,17
25,1,000712,5,U,3,3,00000028,41.638637,-70.447809,FALMOUTH ROAD,MA,Barnstable County,17
25,1,001503,3,U,2,2,00000US6,41.694976,-70.381279,MID CAPE HIGHWAY,MA,Barnstable County,17
25,1,001504,7,U,2,2,00000US6,41.694976,-70.381279,MID CAPE HIGHWAY,MA,Barnstable County,17
25,1,007322,1,U,2,3,00000028,41.67937,-70.59435,ROUTE 28 SOUTH OF OTIS ROTARY (RTE 28A),MA,Barnstable County,17
25,1,007322,5,U,2,3,00000028,41.67937,-70.59435,ROUTE 28 SOUTH OF OTIS ROTARY (RTE 28A),MA,Barnstable County,17
25,1,007351,3,U,3,3,00000028,41.649254,-70.418835,FALMOUTH ROAD WEST OF OLD POST ROAD,MA,Barnstable County,17
25,1,007351,7,U,3,3,00000028,41.649254,-70.418835,FALMOUTH ROAD WEST OF OLD POST ROAD,MA,Barnstable County,17
25,1,070701,1,U,2,3,0000SR25,41.751949,-70.592255,BOURNE BRIDGE,MA,Barnstable County,17
25,1,070702,5,U,2,3,0000SR25,41.751949,-70.592255,BOURNE BRIDGE,MA,Barnstable County,17
25,1,070801,1,U,2,2,00000US6,41.778756,-70.543487,MID CAPE HIGHWAY,MA,Barnstable County,17
25,1,070802,5,U,2,2,00000US6,41.778756,-70.543487,MID CAPE HIGHWAY,MA,Barnstable County,17
25,1,070934,0,U,3,3,0000SR28,41.650325,-70.2363,STATE RTE 28,MA,Barnstable County,17
25,13,000026,1,U,1,1,00000091,42.069892,-72.587882,INTERSTATE 91 S.OF SPRINGFIELD,MA,Hampden County,5
25,13,000026,5,U,1,1,00000091,42.069892,-72.587882,INTERSTATE 91 S.OF SPRINGFIELD,MA,Hampden County,5
25,13,000033,1,U,1,1,00000391,42.152166,-72.611734,INTERSTATE 391 AT RTE. 116,MA,Hampden County,5
25,13,000033,5,U,1,1,00000391,42.152166,-72.611734,INTERSTATE 391 AT RTE. 116,MA,Hampden County,5
25,13,000037,1,U,1,1,00000391,42.166741,-72.61072,INTERSTATE 391 NORTH OF RTE.I- 90,MA,Hampden County,5
25,13,000037,5,U,1,1,00000391,42.166741,-72.61072,INTERSTATE 391 NORTH OF RTE.I- 90,MA,Hampden County,5
25,13,000280,1,U,4,2,00000005,42.162016,-72.633035,Route 5 AT HOLYOKE C.L.,MA,Hampden County,5
25,13,000280,5,U,4,2,00000005,42.162016,-72.633035,Route 5 AT HOLYOKE C.L.,MA,Hampden County,5
25,13,001180,3,U,4,2,00000020,42.173512,-72.832546,ROUTE 20 WEST OF ROUTE 23,MA,Hampden County,5
25,13,001180,7,U,4,2,00000020,42.173512,-72.832546,ROUTE 20 WEST OF ROUTE 23,MA,Hampden County,5
25,13,002157,1,U,1,1,00000091,42.11719,-72.609074,INTERSTATE 91 NORTH OF RTE.20,MA,Hampden County,5
25,13,002157,5,U,1,1,00000091,42.11719,-72.609074,INTERSTATE 91 NORTH OF RTE.20,MA,Hampden County,5
25,13,002163,1,R,1,1,00000391,42.187152,-72.607856,"INTERSTATE 391,  CONNECTICUT RIVER BRIDGE",MA,Hampden County,5
25,13,002163,5,R,1,1,00000391,42.187152,-72.607856,"INTERSTATE 391,  CONNECTICUT RIVER BRIDGE",MA,Hampden County,5
25,13,002247,3,U,1,1,00000291,42.11071,-72.596482,SPRINGFIELD EXPRESSWAY EAST OF CHESTNUT ST.,MA,Hampden County,5
25,13,002247,7,U,1,1,00000291,42.11071,-72.596482,SPRINGFIELD EXPRESSWAY EAST OF CHESTNUT ST.,MA,Hampden County,5
25,13,002248,3,U,1,1,00000291,42.122262,-72.574192,SPRINGFIELD EXPRESSWAY WEST OF SAINT JAMES AVE.,MA,Hampden County,5
25,13,002248,7,U,1,1,00000291,42.122262,-72.574192,SPRINGFIELD EXPRESSWAY WEST OF SAINT JAMES AVE.,MA,Hampden County,5
25,13,002251,3,U,1,1,00000291,42.153139,-72.549112,SPRINGFIELD EXPRESSWAY at  CHICOPEE,MA,Hampden County,5
25,13,002251,7,U,1,1,00000291,42.153139,-72.549112,SPRINGFIELD EXPRESSWAY at  CHICOPEE,MA,Hampden County,5
25,13,002252,1,U,1,1,00000391,42.137064,-72.609601,INTERSTATE 391 north of RTE.I-91,MA,Hampden County,5
25,13,002252,5,U,1,1,00000391,42.137064,-72.609601,INTERSTATE 391 north of RTE.I-91,MA,Hampden County,5
25,13,002257,1,U,1,1,00000091,42.129302,-72.608297,INTERSTATE 91 AT SPRINGFIELD,MA,Hampden County,5
25,13,002257,5,U,1,1,00000091,42.129302,-72.608297,INTERSTATE 91 AT SPRINGFIELD,MA,Hampden County,5
25,13,002601,1,U,1,1,00000I91,42.071457,-72.587338,INTERSTATE 91,MA,Hampden County,5
25,13,002602,5,U,1,1,00000I91,42.071457,-72.587338,INTERSTATE 91,MA,Hampden County,5
25,13,002797,1,U,1,1,00000091,42.137183,-72.631782,INTERSTATE 91 NORTH OF RAMP-RT 5 SB TO RT 91 NB,MA,Hampden County,5
25,13,002797,5,U,1,1,00000091,42.137183,-72.631782,INTERSTATE 91 NORTH OF RAMP-RT 5 SB TO RT 91 NB,MA,Hampden County,5
25,13,002806,3,U,3,3,00000057,42.070003,-72.643121,HENRY E BODURTHA HIGHWAY WEST OF MILL STREET,MA,Hampden County,5
25,13,002806,7,U,3,3,00000057,42.070003,-72.643121,HENRY E BODURTHA HIGHWAY WEST OF MILL STREET,MA,Hampden County,5
25,13,003103,3,U,1,1,0000I291,42.141928,-72.550306,SPRINGFIELD EXPRESSWAY,MA,Hampden County,5
25,13,003104,7,U,1,1,0000I291,42.141928,-72.550306,SPRINGFIELD EXPRESSWAY,MA,Hampden County,5
25,13,003301,1,U,1,1,0000I391,42.151833,-72.611921,INTERSTATE 391,MA,Hampden County,5
25,13,003302,5,U,1,1,0000I391,42.151833,-72.611921,INTERSTATE 391,MA,Hampden County,5
25,13,003329,3,R,6,2,00000020,42.116088,-72.188796,STURBRIDGE ROAD EAST OF new HOLLAND ROAD,MA,Hampden County,5
25,13,003329,7,R,6,2,00000020,42.116088,-72.188796,STURBRIDGE ROAD EAST OF new HOLLAND ROAD,MA,Hampden County,5
25,13,003701,1,U,1,1,0000I391,42.161125,-72.611313,INTERSTATE 391,MA,Hampden County,5
25,13,003702,5,U,1,1,0000I391,42.161125,-72.611313,INTERSTATE 391,MA,Hampden County,5
25,13,009007,3,U,1,1,00000090,42.164293,-72.507479,MASSACHUSETTS TURNPIKE  Between exits 6 & 7,MA,Hampden County,5
25,13,009007,7,U,1,1,00000090,42.164293,-72.507479,MASSACHUSETTS TURNPIKE  Between exits 6 & 7,MA,Hampden County,5
25,13,028012,9,U,3,2,00000US5,42.162106,-72.633024,RIVERDALE STREET,MA,Hampden County,5
25,25,000079,1,U,1,1,00000093,42.312817,-71.023205,GENERAL CASIMIR PULASKI SKYWAY,MA,Suffolk County,17
25,25,000079,5,U,1,1,00000093,42.312817,-71.023205,GENERAL CASIMIR PULASKI SKYWAY,MA,Suffolk County,17
25,25,000081,1,U,1,1,00000093,42.329028,-71.059882,GENERAL CASIMIR PULASKI SKYWAY,MA,Suffolk County,17
25,25,000081,5,U,1,1,00000093,42.329028,-71.059882,GENERAL CASIMIR PULASKI SKYWAY,MA,Suffolk County,17
25,25,008001,1,U,2,2,00000001,42.424997,-71.023639,NORTHEAST EXPRESSWAY,MA,Suffolk County,17
25,25,008002,5,U,2,2,00000001,42.424997,-71.023639,NORTHEAST EXPRESSWAY,MA,Suffolk County,17
25,25,008087,1,U,3,3,0000001A,42.397212,-71.008431,LEE BURBANK HIGHWAY NORTH OF BOSTON,MA,Suffolk County,17
25,25,008087,5,U,3,3,0000001A,42.397212,-71.008431,LEE BURBANK HIGHWAY NORTH OF BOSTON,MA,Suffolk County,17
25,25,008932,1,U,1,1,00000093,42.280895,-71.045937,SERGEANT WILLIAM G WALSH EXPRESSWAY AT HALLET ST,MA,Suffolk County,17
25,25,008932,5,U,1,1,00000093,42.280895,-71.045937,SERGEANT WILLIAM G WALSH EXPRESSWAY AT HALLET ST,MA,Suffolk County,17
25,25,008934,1,U,1,1,00000093,42.329028,-71.059883,GENERAL CASIMIR PULASKI SKYWAY,MA,Suffolk County,17
25,25,008934,5,U,1,1,00000093,42.329028,-71.059883,GENERAL CASIMIR PULASKI SKYWAY,MA,Suffolk County,17
25,25,0H8491,1,U,1,1,00000093,42.283192,-71.044693,I-93 0.2 mile S. of Gallivan Blvd,MA,Suffolk County,17
25,25,0H8491,5,U,1,1,00000093,42.283192,-71.044693,I-93 0.2 mile S. of Gallivan Blvd,MA,Suffolk County,17
25,25,0H8492,1,U,1,1,00000093,42.302465,-71.050394,GENERAL CASIMIR PULASKI SKYWAY N of Morrissey Blvd,MA,Suffolk County,17
25,25,0H8492,5,U,1,1,00000093,42.302465,-71.050394,GENERAL CASIMIR PULASKI SKYWAY N of Morrissey Blvd,MA,Suffolk County,17
25,25,0H8493,1,U,1,1,00000093,42.312817,-71.052102,GENERAL CASIMIR PULASKI SKYWAY N of Savin Hill Ave,MA,Suffolk County,17
25,25,0H8493,5,U,1,1,00000093,42.312817,-71.052102,GENERAL CASIMIR PULASKI SKYWAY N of Savin Hill Ave,MA,Suffolk County,17
25,25,0H8494,1,U,1,1,00000093,42.330841,-71.06134,I-93 190 feet N. of Southampton St,MA,Suffolk County,17
25,25,0H8494,5,U,1,1,00000093,42.330841,-71.06134,I-93 190 feet N. of Southampton St,MA,Suffolk County,17
25,25,H13141,3,U,1,1,00000090,42.357624,-71.158624,I-90 0.03 Mile West of Parsons Street,MA,Suffolk County,17
25,25,H13141,7,U,1,1,00000090,42.357624,-71.158624,I-90 0.03 Mile West of Parsons Street,MA,Suffolk County,17
25,25,H13142,3,U,1,1,00000090,42.356586,-71.131763,I-90 0.05 Mile West of Cambridge Street,MA,Suffolk County,17
25,25,H13142,7,U,1,1,00000090,42.356586,-71.131763,I-90 0.05 Mile West of Cambridge Street,MA,Suffolk County,17
25,25,H13143,3,U,1,1,00000090,42.351246,-71.112292,MASSACHUSETTS TURNPIKE (I-90) 0.07m West of SR-2,MA,Suffolk County,17
25,25,H13143,7,U,1,1,00000090,42.351246,-71.112292,MASSACHUSETTS TURNPIKE (I-90) 0.07m West of SR-2,MA,Suffolk County,17
25,25,H13144,3,U,1,1,00000090,42.348266,-71.103484,I-90 0.1 Mile West of Beacon Street,MA,Suffolk County,17
25,25,H13144,7,U,1,1,00000090,42.348266,-71.103484,I-90 0.1 Mile West of Beacon Street,MA,Suffolk County,17
